{"type":"FeatureCollection","features":[{"type":"Feature","properties":{"acode":"3009","name":"โนนไทย"},"geometry":{"type":"Polygon","coordinates":[[[102.09257,15.12908],[102.09253,15.12735],[102.09202,15.12702],[102.09168,15.12588],[102.09017,15.12464],[102.09068,15.123],[102.09047,15.11904],[102.08537,15.10843],[102.08154,15.10128],[102.08059,15.10017],[102.07992,15.09834],[102.07983,15.09646],[102.0819,15.08725],[102.08257,15.0861],[102.08367,15.08522],[102.08782,15.08298],[102.08819,15.08158],[102.08754,15.08052],[102.08381,15.07779],[102.0748,15.07405],[102.07227,15.07343],[102.06,15.0733],[102.05157,15.0739],[102.0508,15.07438],[102.05002,15.07387],[102.04296,15.0728],[102.03829,15.07327],[102.03564,15.07426],[102.03446,15.0723],[102.03412,15.07312],[102.03349,15.07307],[102.03254,15.07358],[102.03018,15.07336],[102.02519,15.07518],[102.02028,15.07302],[102.01963,15.07429],[102.01617,15.07749],[102.01572,15.08015],[102.0141,15.08115],[102.01161,15.08182],[102.01211,15.08516],[102.01176,15.08616],[102.01083,15.08588],[102.00879,15.08609],[102.00796,15.08568],[102.00502,15.08572],[102.00343,15.08531],[102.00092,15.08533],[101.99923,15.08485],[101.99831,15.08491],[101.99817,15.08541],[101.99501,15.08526],[101.99461,15.08701],[101.99281,15.08861],[101.99106,15.08932],[101.98401,15.09029],[101.98067,15.09],[101.97347,15.08704],[101.97286,15.08759],[101.97325,15.0893],[101.97216,15.09118],[101.97012,15.0921],[101.96471,15.09275],[101.96374,15.09396],[101.96034,15.09381],[101.95948,15.09405],[101.9583,15.09334],[101.95685,15.09315],[101.95561,15.09403],[101.95381,15.09422],[101.95149,15.09504],[101.95144,15.09577],[101.95099,15.09612],[101.95014,15.0987],[101.94629,15.10239],[101.9438,15.10321],[101.93666,15.10424],[101.93365,15.10499],[101.92992,15.10746],[101.92799,15.10831],[101.92662,15.10847],[101.92287,15.10678],[101.92133,15.10645],[101.91485,15.10571],[101.91068,15.10561],[101.908,15.10578],[101.89857,15.10763],[101.89216,15.10997],[101.88884,15.1106],[101.88963,15.1109],[101.89055,15.11273],[101.89208,15.1143],[101.89336,15.11652],[101.89757,15.12881],[101.90031,15.13875],[101.90158,15.14472],[101.90244,15.14785],[101.90294,15.14859],[101.90291,15.14973],[101.902,15.15084],[101.90172,15.15614],[101.90113,15.15678],[101.89275,15.15976],[101.89186,15.15991],[101.88941,15.15955],[101.88635,15.16066],[101.88489,15.16062],[101.88411,15.16122],[101.88435,15.16367],[101.8832,15.16457],[101.88119,15.16777],[101.87904,15.16995],[101.88013,15.17277],[101.88013,15.1738],[101.87823,15.1829],[101.87779,15.1867],[101.87714,15.18717],[101.87099,15.18934],[101.86834,15.18972],[101.86793,15.19004],[101.86856,15.1913],[101.87179,15.19394],[101.87363,15.20086],[101.87365,15.20314],[101.87412,15.2033],[101.87253,15.20645],[101.87259,15.20815],[101.87099,15.2169],[101.87096,15.22055],[101.87138,15.22377],[101.87336,15.22531],[101.87499,15.22447],[101.87507,15.22408],[101.87453,15.22313],[101.87503,15.22253],[101.87511,15.22173],[101.87609,15.2222],[101.87772,15.22171],[101.87821,15.22216],[101.87822,15.22313],[101.87892,15.22425],[101.87925,15.22427],[101.87933,15.22337],[101.87956,15.22329],[101.88064,15.22415],[101.8814,15.22417],[101.88159,15.22393],[101.88085,15.22373],[101.88035,15.22224],[101.88127,15.22193],[101.88147,15.22098],[101.88181,15.22086],[101.88244,15.2215],[101.88333,15.22121],[101.88278,15.2219],[101.88333,15.22291],[101.88418,15.22163],[101.88453,15.22172],[101.88451,15.22226],[101.88515,15.22202],[101.88545,15.22259],[101.88601,15.22222],[101.88638,15.22355],[101.88695,15.22388],[101.88724,15.22458],[101.88891,15.22413],[101.88912,15.22334],[101.88963,15.22305],[101.88975,15.22386],[101.89049,15.22467],[101.89046,15.22525],[101.88993,15.22595],[101.8902,15.2263],[101.89116,15.22628],[101.89135,15.22593],[101.89183,15.22608],[101.89318,15.22515],[101.89325,15.22436],[101.89361,15.22411],[101.89381,15.22426],[101.89362,15.2248],[101.89466,15.22578],[101.89423,15.2265],[101.89614,15.22736],[101.8963,15.22694],[101.89589,15.2267],[101.89608,15.22638],[101.89651,15.22643],[101.89626,15.22583],[101.89678,15.22581],[101.89779,15.22405],[101.89919,15.22447],[101.90007,15.2253],[101.90077,15.22501],[101.90147,15.22557],[101.90329,15.22582],[101.90341,15.22532],[101.90399,15.22511],[101.90431,15.22601],[101.90494,15.22527],[101.90556,15.22557],[101.90571,15.22602],[101.90452,15.2282],[101.90392,15.23093],[101.90272,15.23381],[101.90214,15.23498],[101.90049,15.23693],[101.90332,15.24182],[101.90728,15.24698],[101.91015,15.25346],[101.91292,15.2567],[101.91351,15.2579],[101.91349,15.26084],[101.91645,15.26899],[101.91691,15.27416],[101.91916,15.28418],[101.91959,15.2878],[101.92014,15.28886],[101.92285,15.2914],[101.92368,15.29296],[101.92324,15.30288],[101.92351,15.30551],[101.92931,15.29435],[101.93241,15.29058],[101.94223,15.28642],[101.94682,15.28512],[101.95065,15.28017],[101.95026,15.27896],[101.94796,15.27518],[101.94339,15.26493],[101.94,15.26056],[101.93891,15.25543],[101.93899,15.25378],[101.93996,15.25159],[101.94164,15.24939],[101.94398,15.2473],[101.94568,15.24623],[101.94764,15.24549],[101.95383,15.24432],[101.95859,15.24434],[101.963,15.2438],[101.96656,15.24246],[101.96928,15.24102],[101.97077,15.23898],[101.97094,15.23521],[101.97149,15.23337],[101.97103,15.23323],[101.97173,15.23056],[101.97213,15.23062],[101.97232,15.22743],[101.97292,15.2249],[101.97273,15.22469],[101.97367,15.22184],[101.97465,15.22102],[101.9781,15.22085],[101.97922,15.22095],[101.978,15.22286],[101.9771,15.22365],[101.97603,15.22881],[101.97932,15.22999],[101.98368,15.23238],[101.98449,15.23314],[101.98488,15.23466],[101.98528,15.23495],[101.99106,15.23591],[101.9935,15.23564],[101.99642,15.23668],[101.99826,15.23774],[102.00351,15.23828],[102.00695,15.24175],[102.00967,15.24351],[102.01377,15.24685],[102.01556,15.25015],[102.01818,15.2527],[102.01712,15.25607],[102.01669,15.25648],[102.01666,15.25905],[102.01627,15.26074],[102.01505,15.26086],[102.01492,15.26362],[102.01347,15.26301],[102.01295,15.26121],[102.01005,15.26199],[102.00502,15.26183],[102.00475,15.2637],[102.00507,15.26434],[102.00509,15.26621],[102.00683,15.26686],[102.00719,15.2686],[102.00857,15.26908],[102.00929,15.27033],[102.00977,15.27063],[102.01063,15.27043],[102.01079,15.27174],[102.01056,15.2725],[102.01268,15.27277],[102.01499,15.27436],[102.01674,15.27409],[102.01709,15.27531],[102.01997,15.27448],[102.01999,15.27393],[102.02033,15.27385],[102.02212,15.27424],[102.02361,15.27528],[102.02551,15.27568],[102.02643,15.27725],[102.02687,15.27954],[102.02694,15.28258],[102.02627,15.2836],[102.02661,15.28609],[102.02591,15.28721],[102.02547,15.2893],[102.02635,15.2917],[102.02633,15.29236],[102.02573,15.29325],[102.02756,15.29393],[102.02934,15.29411],[102.03503,15.29403],[102.03669,15.29867],[102.03619,15.29985],[102.03634,15.30172],[102.03581,15.30437],[102.03796,15.30383],[102.04304,15.30063],[102.04954,15.29411],[102.05237,15.29081],[102.05833,15.28125],[102.06138,15.27762],[102.0621,15.2778],[102.06264,15.27859],[102.06656,15.28057],[102.06804,15.2819],[102.07166,15.28243],[102.07182,15.28405],[102.07495,15.28508],[102.07698,15.2962],[102.07778,15.29787],[102.07911,15.29942],[102.08807,15.30556],[102.09105,15.30705],[102.09301,15.30753],[102.10348,15.30833],[102.10343,15.30872],[102.10375,15.30895],[102.11028,15.31123],[102.11062,15.31164],[102.11134,15.31117],[102.11146,15.31035],[102.11267,15.30919],[102.11495,15.30967],[102.11625,15.30896],[102.11651,15.30843],[102.11716,15.30815],[102.11766,15.3084],[102.11848,15.30785],[102.12027,15.30907],[102.12229,15.30801],[102.12343,15.30867],[102.12741,15.30881],[102.13244,15.30851],[102.13481,15.30803],[102.13948,15.30937],[102.14144,15.30829],[102.14186,15.30785],[102.14244,15.30504],[102.14311,15.30345],[102.14448,15.29132],[102.14997,15.28906],[102.15454,15.28772],[102.15615,15.28642],[102.15702,15.28513],[102.15895,15.28023],[102.15885,15.27938],[102.1597,15.27572],[102.15898,15.26575],[102.16501,15.25364],[102.16672,15.2512],[102.16804,15.24991],[102.16851,15.24882],[102.17333,15.24635],[102.17406,15.24477],[102.17456,15.24285],[102.17497,15.23549],[102.17596,15.22776],[102.17737,15.22532],[102.17784,15.22381],[102.17815,15.22147],[102.1778,15.21989],[102.17701,15.21793],[102.17643,15.21727],[102.17229,15.21411],[102.16796,15.21321],[102.16405,15.213],[102.15438,15.21085],[102.1422,15.21049],[102.13807,15.20743],[102.13693,15.20619],[102.13618,15.2043],[102.13519,15.19807],[102.13514,15.19505],[102.13604,15.19365],[102.13682,15.19113],[102.13646,15.19067],[102.13544,15.19048],[102.13451,15.18979],[102.13554,15.18709],[102.1356,15.18661],[102.13523,15.18622],[102.13535,15.18532],[102.13478,15.18459],[102.13378,15.18434],[102.13396,15.18254],[102.1344,15.18213],[102.13424,15.18133],[102.13374,15.18059],[102.13223,15.17949],[102.13193,15.17872],[102.1323,15.17674],[102.13166,15.1763],[102.13238,15.17429],[102.13246,15.17266],[102.13218,15.17011],[102.13352,15.16854],[102.13196,15.16742],[102.12999,15.15943],[102.12857,15.15634],[102.12837,15.15409],[102.12697,15.14935],[102.12411,15.14475],[102.12306,15.14206],[102.12117,15.14182],[102.121,15.14088],[102.12053,15.14048],[102.12099,15.13891],[102.12064,15.13778],[102.11866,15.13863],[102.11811,15.13768],[102.11671,15.13696],[102.1159,15.13761],[102.11559,15.13965],[102.11494,15.14011],[102.1139,15.14009],[102.1124,15.13873],[102.11221,15.13736],[102.11246,15.13654],[102.11162,15.13501],[102.10781,15.13635],[102.10724,15.13602],[102.10681,15.13483],[102.10644,15.13468],[102.10583,15.13472],[102.10444,15.13558],[102.10329,15.13482],[102.10161,15.1361],[102.10082,15.13613],[102.10036,15.13568],[102.1004,15.13513],[102.10155,15.13483],[102.10183,15.13431],[102.10315,15.13386],[102.10339,15.13352],[102.10115,15.13226],[102.10157,15.13096],[102.10077,15.13083],[102.09997,15.13155],[102.09925,15.13174],[102.0991,15.13223],[102.09959,15.13253],[102.09949,15.13287],[102.09816,15.13365],[102.09735,15.13367],[102.09621,15.13231],[102.0964,15.13181],[102.09711,15.13186],[102.09744,15.13143],[102.09678,15.13096],[102.09656,15.13021],[102.0959,15.1304],[102.09519,15.13137],[102.09417,15.13074],[102.09303,15.13206],[102.09253,15.13193],[102.09239,15.13142],[102.09304,15.12968],[102.09294,15.12921],[102.09257,15.12908]]]}},{"type":"Feature","properties":{"acode":"3010","name":"โนนสูง"},"geometry":{"type":"Polygon","coordinates":[[[102.26955,15.03716],[102.26811,15.0364],[102.26749,15.03711],[102.26722,15.03677],[102.26464,15.03631],[102.26351,15.03682],[102.26286,15.03674],[102.26228,15.03728],[102.26069,15.03715],[102.26032,15.03659],[102.26001,15.03683],[102.26012,15.03718],[102.25959,15.03733],[102.25945,15.03649],[102.25918,15.03644],[102.25909,15.03706],[102.25776,15.03716],[102.25726,15.0387],[102.25652,15.03893],[102.25637,15.04125],[102.25564,15.04132],[102.25291,15.04267],[102.25233,15.04256],[102.25011,15.04326],[102.25119,15.04468],[102.25157,15.04936],[102.25124,15.05079],[102.25187,15.05658],[102.25119,15.05723],[102.25079,15.05843],[102.24884,15.05863],[102.24858,15.06203],[102.24684,15.06711],[102.24595,15.0724],[102.2442,15.07443],[102.2433,15.0747],[102.24112,15.0762],[102.24004,15.0765],[102.23992,15.07844],[102.23682,15.07861],[102.23606,15.0799],[102.23568,15.08229],[102.23334,15.08268],[102.2333,15.08606],[102.23451,15.09022],[102.23456,15.09133],[102.23279,15.09481],[102.23294,15.09628],[102.23247,15.09923],[102.23098,15.10139],[102.23025,15.10393],[102.22886,15.10666],[102.22675,15.10903],[102.22614,15.10926],[102.22594,15.11003],[102.22473,15.11052],[102.22441,15.11193],[102.22266,15.11428],[102.22223,15.11612],[102.21326,15.11885],[102.21074,15.12001],[102.20682,15.11913],[102.20136,15.11915],[102.20125,15.12044],[102.19972,15.12135],[102.19909,15.12234],[102.19845,15.12118],[102.19338,15.12257],[102.19025,15.12414],[102.18551,15.12752],[102.18515,15.12816],[102.18286,15.12894],[102.18168,15.13303],[102.18166,15.13429],[102.18235,15.1348],[102.18212,15.13636],[102.18385,15.13797],[102.18274,15.1398],[102.18121,15.14055],[102.17738,15.13897],[102.17001,15.13775],[102.16862,15.13788],[102.1662,15.1371],[102.16452,15.13611],[102.16182,15.13617],[102.15915,15.13556],[102.1581,15.13625],[102.15765,15.13622],[102.15586,15.13386],[102.15571,15.13285],[102.15621,15.13187],[102.15612,15.13139],[102.15426,15.13061],[102.15218,15.12818],[102.15122,15.12755],[102.15083,15.12651],[102.15014,15.12582],[102.14748,15.1253],[102.1459,15.12583],[102.14607,15.1268],[102.14579,15.12718],[102.14432,15.12698],[102.14348,15.12721],[102.14311,15.1266],[102.14202,15.12645],[102.1416,15.12584],[102.14064,15.12581],[102.14039,15.12477],[102.13958,15.12486],[102.13675,15.12397],[102.13538,15.12409],[102.13481,15.1249],[102.13518,15.1254],[102.13496,15.12589],[102.13451,15.12573],[102.13393,15.12634],[102.13328,15.12628],[102.13264,15.12701],[102.13286,15.1282],[102.13242,15.12871],[102.13182,15.13107],[102.13047,15.1322],[102.13023,15.13314],[102.12815,15.13388],[102.12606,15.13298],[102.1259,15.13146],[102.1243,15.13162],[102.12435,15.13419],[102.12078,15.13716],[102.12064,15.13778],[102.12099,15.13891],[102.12053,15.14048],[102.121,15.14088],[102.12125,15.14189],[102.12306,15.14206],[102.12411,15.14475],[102.12688,15.14912],[102.12817,15.15325],[102.12857,15.15634],[102.12999,15.15943],[102.13196,15.16742],[102.13352,15.16854],[102.13218,15.17011],[102.13241,15.17416],[102.13166,15.1763],[102.1323,15.17674],[102.13191,15.17848],[102.13223,15.17949],[102.13374,15.18059],[102.13424,15.18133],[102.1344,15.18213],[102.13396,15.18254],[102.13374,15.18424],[102.13478,15.18459],[102.13535,15.18532],[102.13523,15.18622],[102.1356,15.18661],[102.13554,15.18709],[102.13451,15.18979],[102.13544,15.19048],[102.13646,15.19067],[102.13682,15.19113],[102.13604,15.19365],[102.13514,15.19505],[102.13507,15.19634],[102.13592,15.20339],[102.13693,15.20619],[102.14047,15.20943],[102.1422,15.21049],[102.15438,15.21085],[102.16405,15.213],[102.16796,15.21321],[102.17229,15.21411],[102.17643,15.21727],[102.17701,15.21793],[102.1778,15.21989],[102.17815,15.22147],[102.17784,15.22381],[102.17737,15.22532],[102.17596,15.22776],[102.17497,15.23549],[102.17437,15.24392],[102.17333,15.24635],[102.16851,15.24882],[102.16804,15.24991],[102.16672,15.2512],[102.16501,15.25364],[102.16193,15.26025],[102.15968,15.26412],[102.15898,15.26575],[102.1589,15.26677],[102.1597,15.27572],[102.15885,15.27938],[102.1644,15.27855],[102.16887,15.27861],[102.17448,15.27891],[102.17778,15.28013],[102.17936,15.28036],[102.17948,15.27966],[102.1804,15.27958],[102.18377,15.27988],[102.18459,15.28042],[102.1855,15.28944],[102.18393,15.2944],[102.18386,15.29605],[102.18953,15.31633],[102.18952,15.31999],[102.19002,15.32085],[102.19187,15.32192],[102.19487,15.32271],[102.20064,15.32332],[102.21318,15.32622],[102.22403,15.32972],[102.23107,15.33147],[102.23554,15.3329],[102.23942,15.33454],[102.24276,15.33692],[102.24612,15.33996],[102.25082,15.34502],[102.25549,15.34852],[102.25728,15.34933],[102.26266,15.35331],[102.26586,15.35511],[102.27477,15.35869],[102.27912,15.36102],[102.28202,15.36318],[102.28503,15.36607],[102.28827,15.36839],[102.29092,15.37109],[102.29364,15.37217],[102.31176,15.38413],[102.316,15.38446],[102.32363,15.38427],[102.32729,15.38387],[102.32813,15.38333],[102.32884,15.37985],[102.32937,15.37862],[102.33118,15.3782],[102.33428,15.37816],[102.34075,15.3774],[102.35236,15.37449],[102.35841,15.37445],[102.36113,15.37307],[102.36217,15.37315],[102.36366,15.3713],[102.36975,15.36915],[102.373,15.36443],[102.37382,15.36273],[102.37539,15.36334],[102.37513,15.36238],[102.3757,15.36123],[102.37421,15.35895],[102.37162,15.35646],[102.37078,15.35432],[102.36715,15.35096],[102.3564,15.33862],[102.34218,15.32332],[102.34084,15.32165],[102.34009,15.32003],[102.33994,15.31822],[102.34166,15.30942],[102.34124,15.30011],[102.34011,15.29849],[102.34027,15.29638],[102.33993,15.29224],[102.34161,15.2896],[102.3422,15.28394],[102.34274,15.28257],[102.34326,15.28233],[102.34432,15.28088],[102.34753,15.27908],[102.35043,15.27866],[102.35716,15.27871],[102.36543,15.27722],[102.368,15.27728],[102.37315,15.27834],[102.37754,15.27982],[102.38407,15.28148],[102.38498,15.28217],[102.38556,15.28195],[102.38637,15.28089],[102.38705,15.28079],[102.38795,15.28146],[102.38759,15.28503],[102.38707,15.28603],[102.38725,15.28652],[102.38784,15.28665],[102.39051,15.2861],[102.39328,15.28714],[102.39328,15.28814],[102.39195,15.28865],[102.39144,15.28927],[102.39174,15.29089],[102.39446,15.2937],[102.39657,15.29369],[102.39694,15.294],[102.3977,15.29554],[102.39686,15.2967],[102.39702,15.29724],[102.39822,15.29721],[102.39932,15.29787],[102.40019,15.29781],[102.40048,15.29747],[102.40012,15.29674],[102.4003,15.29634],[102.40233,15.29558],[102.4037,15.29419],[102.40467,15.29377],[102.40858,15.27632],[102.4094,15.27506],[102.40945,15.27325],[102.40986,15.27301],[102.4101,15.27158],[102.41156,15.27122],[102.41204,15.272],[102.41299,15.27226],[102.41348,15.27275],[102.41354,15.27343],[102.41488,15.27296],[102.41561,15.27412],[102.41729,15.27395],[102.41733,15.27344],[102.41686,15.27287],[102.41705,15.27259],[102.41841,15.27301],[102.41904,15.27196],[102.4241,15.2672],[102.43138,15.25903],[102.43398,15.25499],[102.4355,15.24996],[102.43004,15.2476],[102.42991,15.24721],[102.42624,15.24663],[102.42628,15.24625],[102.42557,15.24584],[102.42291,15.24549],[102.41726,15.24362],[102.4169,15.24398],[102.41153,15.24211],[102.40533,15.24143],[102.40528,15.24041],[102.40144,15.23789],[102.38838,15.23146],[102.38517,15.23034],[102.38459,15.22962],[102.38305,15.22881],[102.38079,15.22657],[102.37917,15.22566],[102.37942,15.22434],[102.37676,15.22295],[102.37893,15.21894],[102.37644,15.21795],[102.37293,15.21531],[102.36932,15.21401],[102.36676,15.21247],[102.36848,15.20759],[102.3694,15.20411],[102.36907,15.20397],[102.3704,15.19965],[102.37265,15.19414],[102.37305,15.1938],[102.37359,15.19389],[102.37811,15.18959],[102.37811,15.18921],[102.37632,15.18935],[102.37532,15.18755],[102.37629,15.18747],[102.37775,15.18824],[102.37853,15.18735],[102.37845,15.18704],[102.37744,15.18683],[102.37741,15.18561],[102.37666,15.18528],[102.37595,15.18424],[102.37506,15.18405],[102.37541,15.18249],[102.37685,15.1828],[102.37752,15.18242],[102.37771,15.18193],[102.37739,15.18151],[102.37508,15.18124],[102.37511,15.18078],[102.37609,15.17985],[102.37536,15.17823],[102.3735,15.17838],[102.37282,15.17799],[102.37245,15.1769],[102.37331,15.17593],[102.37342,15.17507],[102.37201,15.17518],[102.37101,15.17686],[102.36969,15.17682],[102.36908,15.17547],[102.36919,15.17407],[102.36825,15.17351],[102.36977,15.17242],[102.36966,15.17172],[102.36867,15.17082],[102.36891,15.16953],[102.37012,15.16838],[102.37121,15.16667],[102.37341,15.16586],[102.37414,15.16449],[102.37397,15.16402],[102.37349,15.164],[102.37258,15.16529],[102.37218,15.1654],[102.36959,15.16356],[102.36974,15.16295],[102.37027,15.16268],[102.37188,15.16362],[102.37244,15.16341],[102.37216,15.16087],[102.37118,15.16014],[102.37031,15.16015],[102.3704,15.16146],[102.36965,15.16231],[102.36884,15.16241],[102.36847,15.16194],[102.36887,15.15881],[102.36996,15.15797],[102.37025,15.15726],[102.37019,15.15591],[102.36939,15.15428],[102.36978,15.1539],[102.37133,15.15355],[102.37173,15.15274],[102.3715,15.15199],[102.37025,15.15137],[102.36991,15.15037],[102.37026,15.15008],[102.37238,15.15024],[102.37292,15.14994],[102.3728,15.14895],[102.37147,15.14827],[102.37125,15.14759],[102.37251,15.14668],[102.37382,15.14651],[102.37346,15.14527],[102.37443,15.14381],[102.3726,15.14106],[102.37267,15.14058],[102.37322,15.14041],[102.37442,15.14148],[102.37628,15.14158],[102.37605,15.14114],[102.37444,15.1404],[102.37412,15.1397],[102.37476,15.13873],[102.37671,15.13808],[102.37707,15.13761],[102.37624,15.13665],[102.37481,15.13693],[102.3755,15.13522],[102.3761,15.13592],[102.37672,15.13577],[102.37615,15.13339],[102.37679,15.13335],[102.37747,15.13433],[102.37898,15.1341],[102.37797,15.13277],[102.37805,15.13215],[102.3787,15.13159],[102.3785,15.13098],[102.37618,15.13099],[102.37382,15.13023],[102.37336,15.12981],[102.37341,15.12913],[102.37422,15.12839],[102.37474,15.12599],[102.37454,15.12534],[102.37379,15.12552],[102.37386,15.12653],[102.37358,15.12709],[102.37139,15.12853],[102.37093,15.12835],[102.37086,15.12753],[102.37234,15.12669],[102.3728,15.12557],[102.3726,15.12501],[102.3713,15.12401],[102.36991,15.12415],[102.36817,15.12632],[102.36687,15.12616],[102.36661,15.12481],[102.36688,15.12383],[102.36742,15.1235],[102.36873,15.12381],[102.36886,15.12319],[102.36828,15.12288],[102.3672,15.12309],[102.36643,15.12268],[102.36641,15.12208],[102.36712,15.12061],[102.36701,15.12011],[102.36525,15.12036],[102.36384,15.11982],[102.36324,15.11916],[102.36341,15.11881],[102.36477,15.11868],[102.3657,15.11824],[102.36637,15.11739],[102.36612,15.11668],[102.36433,15.11681],[102.36153,15.11549],[102.36101,15.11567],[102.36049,15.11692],[102.35878,15.11624],[102.3558,15.11639],[102.35538,15.11608],[102.35538,15.11561],[102.35648,15.11491],[102.35674,15.11432],[102.35657,15.11329],[102.35592,15.11278],[102.35533,15.11324],[102.35473,15.11528],[102.35408,15.11588],[102.35337,15.11588],[102.3527,15.11499],[102.35271,15.11362],[102.35217,15.11283],[102.35337,15.11164],[102.35342,15.1109],[102.35289,15.11055],[102.35114,15.11066],[102.35094,15.11028],[102.35145,15.10962],[102.35142,15.10919],[102.3498,15.10787],[102.34988,15.10713],[102.3504,15.10692],[102.3515,15.10759],[102.35202,15.10756],[102.35217,15.10722],[102.35168,15.10617],[102.35346,15.10557],[102.35356,15.10377],[102.35405,15.10356],[102.35513,15.10387],[102.35505,15.1035],[102.35372,15.10291],[102.35355,15.10198],[102.35593,15.1008],[102.35747,15.09926],[102.35726,15.09893],[102.35593,15.09898],[102.35577,15.0975],[102.35673,15.09758],[102.35818,15.09859],[102.35909,15.09814],[102.35898,15.09766],[102.35734,15.09634],[102.35722,15.09573],[102.35789,15.0955],[102.35868,15.09636],[102.35958,15.09609],[102.35959,15.09548],[102.35847,15.09512],[102.35809,15.09339],[102.36034,15.09384],[102.36076,15.09326],[102.36047,15.09291],[102.3588,15.09269],[102.35819,15.09183],[102.3585,15.09137],[102.36013,15.09084],[102.35965,15.08882],[102.36019,15.08783],[102.36119,15.0879],[102.36252,15.08873],[102.36369,15.0882],[102.36412,15.08674],[102.36339,15.08555],[102.36243,15.08548],[102.36246,15.08665],[102.36187,15.08705],[102.36146,15.08688],[102.36135,15.08566],[102.36092,15.08525],[102.36046,15.0853],[102.35977,15.08614],[102.35807,15.0861],[102.35628,15.0878],[102.35498,15.08859],[102.35428,15.09005],[102.35334,15.09068],[102.35275,15.09003],[102.35399,15.08817],[102.35388,15.0877],[102.35334,15.08744],[102.3525,15.0877],[102.35164,15.08734],[102.351,15.08746],[102.35038,15.08852],[102.35072,15.08959],[102.35009,15.08994],[102.34992,15.09062],[102.3494,15.09093],[102.34901,15.09071],[102.34851,15.0894],[102.34675,15.09023],[102.34654,15.08976],[102.34699,15.08827],[102.34566,15.08844],[102.34501,15.08818],[102.34456,15.08757],[102.34448,15.08679],[102.34515,15.08543],[102.34562,15.08651],[102.34709,15.08686],[102.34707,15.0864],[102.34595,15.085],[102.3478,15.08399],[102.34776,15.08358],[102.34663,15.08302],[102.34657,15.08246],[102.34814,15.08032],[102.34811,15.07965],[102.34751,15.07978],[102.34685,15.08065],[102.34646,15.08063],[102.34605,15.07989],[102.34614,15.07822],[102.34535,15.07786],[102.34436,15.07838],[102.34362,15.07942],[102.34298,15.07947],[102.34273,15.07918],[102.34271,15.0777],[102.34162,15.07745],[102.34119,15.07782],[102.34147,15.07876],[102.34129,15.07927],[102.34041,15.08013],[102.33977,15.08014],[102.33924,15.07945],[102.3384,15.07907],[102.33865,15.07855],[102.34059,15.078],[102.33921,15.07676],[102.33934,15.07581],[102.33886,15.07552],[102.33696,15.07648],[102.33629,15.07613],[102.33636,15.07568],[102.33756,15.07466],[102.33746,15.07408],[102.33498,15.07449],[102.33487,15.07406],[102.33543,15.07331],[102.33479,15.07286],[102.33285,15.07341],[102.33236,15.07468],[102.3317,15.07485],[102.33044,15.07352],[102.32918,15.07285],[102.329,15.07236],[102.32936,15.07143],[102.32898,15.07099],[102.3275,15.07182],[102.32715,15.07326],[102.32626,15.07274],[102.32457,15.07238],[102.32439,15.07195],[102.32469,15.07149],[102.32742,15.06996],[102.32725,15.06887],[102.32656,15.06877],[102.32553,15.06957],[102.32333,15.06821],[102.32084,15.06831],[102.31993,15.06788],[102.31977,15.06718],[102.32032,15.06618],[102.31957,15.0655],[102.31956,15.0646],[102.32013,15.06414],[102.32165,15.06399],[102.32179,15.06345],[102.32051,15.06259],[102.32007,15.06135],[102.31765,15.05995],[102.31563,15.06036],[102.31487,15.05995],[102.315,15.05901],[102.31647,15.05873],[102.3171,15.05828],[102.31696,15.0574],[102.31572,15.05714],[102.31443,15.05632],[102.3137,15.05645],[102.31279,15.05599],[102.31135,15.05637],[102.31066,15.05624],[102.31038,15.05546],[102.31106,15.05434],[102.31075,15.0537],[102.31002,15.05379],[102.30877,15.05464],[102.30714,15.05344],[102.30618,15.05345],[102.30517,15.05436],[102.30469,15.05421],[102.30459,15.05377],[102.30518,15.05268],[102.30654,15.05171],[102.3065,15.05107],[102.30583,15.05056],[102.30473,15.05121],[102.3043,15.05105],[102.30475,15.04967],[102.3047,15.04867],[102.30238,15.04924],[102.30142,15.04902],[102.30276,15.04642],[102.30247,15.04569],[102.3018,15.04558],[102.30074,15.04612],[102.29958,15.04531],[102.29739,15.04525],[102.29743,15.04475],[102.29853,15.04409],[102.29888,15.0433],[102.29748,15.04254],[102.29692,15.0413],[102.29631,15.04134],[102.29578,15.04202],[102.2962,15.04357],[102.29543,15.0447],[102.295,15.04465],[102.29376,15.04338],[102.29271,15.04307],[102.29147,15.0447],[102.29047,15.04481],[102.29039,15.04407],[102.29112,15.04317],[102.29112,15.04274],[102.28839,15.04028],[102.28832,15.03918],[102.28601,15.03913],[102.28456,15.03884],[102.28395,15.03839],[102.28395,15.03772],[102.28461,15.03721],[102.28459,15.03628],[102.28552,15.03531],[102.28514,15.03497],[102.28386,15.03506],[102.28317,15.03462],[102.28316,15.03387],[102.28381,15.03289],[102.28363,15.03236],[102.28193,15.0325],[102.28103,15.0318],[102.27998,15.03192],[102.27937,15.03143],[102.27935,15.03081],[102.27891,15.03038],[102.27694,15.0293],[102.27394,15.03019],[102.27401,15.03159],[102.27339,15.03204],[102.27379,15.03262],[102.27254,15.03221],[102.27239,15.03242],[102.27275,15.03282],[102.27211,15.03292],[102.27159,15.03253],[102.27138,15.03278],[102.27158,15.03351],[102.27077,15.03335],[102.27119,15.03434],[102.2703,15.03407],[102.27046,15.03455],[102.26997,15.03482],[102.27101,15.03535],[102.2709,15.0356],[102.27045,15.03534],[102.27025,15.03555],[102.27099,15.03635],[102.26952,15.03585],[102.26901,15.03533],[102.26867,15.03547],[102.26864,15.03595],[102.26928,15.03628],[102.26955,15.03716]]]}}]}