{"type":"FeatureCollection","features":[{"type":"Feature","properties":{"id":"LCK","name":"ลุ่มลำเชียงไกรเหนือ M.188A","outlet":"M.188A","area_km2":3136,"da_rid":2811.0,"diff_pct":11.5,"n_sub":21,"complete":true},"geometry":{"type":"Polygon","coordinates":[[[101.5022,15.038],[101.5125,15.0583],[101.4897,15.0745],[101.4616,15.0797],[101.4564,15.0755],[101.443,15.0745],[101.4411,15.0801],[101.4467,15.0908],[101.458,15.0975],[101.4675,15.12],[101.4708,15.1208],[101.4756,15.1382],[101.47,15.1491],[101.4633,15.1509],[101.4616,15.1575],[101.455,15.1592],[101.4505,15.1688],[101.4547,15.1757],[101.4496,15.1824],[101.4423,15.1842],[101.4411,15.198],[101.4339,15.2061],[101.4328,15.2134],[101.4494,15.2353],[101.4536,15.2478],[101.4547,15.2674],[101.4505,15.2729],[101.4536,15.277],[101.4547,15.3105],[101.4667,15.3292],[101.4825,15.3242],[101.4842,15.3175],[101.4913,15.3157],[101.4967,15.305],[101.5,15.3042],[101.5009,15.3077],[101.5257,15.3089],[101.5313,15.3046],[101.5436,15.3119],[101.5658,15.3131],[101.5708,15.3292],[101.5892,15.317],[101.6,15.3167],[101.6004,15.3274],[101.6045,15.3358],[101.61,15.3413],[101.6274,15.3462],[101.633,15.3517],[101.6371,15.3601],[101.6375,15.375],[101.6493,15.3703],[101.6603,15.3744],[101.6814,15.3756],[101.6895,15.3828],[101.7022,15.3839],[101.7198,15.4006],[101.7283,15.3993],[101.73,15.3925],[101.7395,15.3881],[101.7574,15.3869],[101.7583,15.3833],[101.7772,15.3839],[101.7895,15.3953],[101.8272,15.4006],[101.845,15.4092],[101.8458,15.4125],[101.852,15.4089],[101.8658,15.4077],[101.8667,15.4042],[101.9,15.4042],[101.9047,15.4189],[101.9119,15.427],[101.9132,15.4366],[101.9208,15.4417],[101.9212,15.4483],[101.9309,15.458],[101.935,15.4587],[101.9392,15.4545],[101.9642,15.4538],[101.9684,15.458],[101.9858,15.4587],[101.9917,15.4667],[101.9958,15.4667],[101.9967,15.4632],[102.0125,15.4583],[102.0132,15.4509],[102.0371,15.4407],[102.0455,15.4191],[102.0455,15.3934],[102.0333,15.3812],[102.0455,15.3691],[102.0462,15.3434],[102.0458,15.3625],[102.0564,15.3619],[102.0686,15.3506],[102.0824,15.3493],[102.0842,15.3425],[102.091,15.3408],[102.0923,15.326],[102.0991,15.3203],[102.1147,15.3214],[102.1201,15.3256],[102.1311,15.3172],[102.149,15.316],[102.1578,15.3064],[102.1535,15.2962],[102.159,15.2812],[102.1702,15.2688],[102.1744,15.2562],[102.1702,15.2503],[102.1716,15.2341],[102.1833,15.2333],[102.195,15.2383],[102.197,15.2464],[102.2189,15.2453],[102.2228,15.2422],[102.2397,15.2411],[102.2451,15.2369],[102.253,15.2419],[102.2551,15.234],[102.2689,15.2328],[102.2854,15.2255],[102.3083,15.2375],[102.3667,15.2333],[102.3625,15.2271],[102.3759,15.2009],[102.3833,15.2],[102.3827,15.1926],[102.3688,15.1838],[102.3574,15.1881],[102.3468,15.1786],[102.3381,15.1647],[102.3369,15.1561],[102.3218,15.1454],[102.316,15.1259],[102.3064,15.1214],[102.2853,15.1203],[102.2782,15.1161],[102.2676,15.1256],[102.2658,15.1327],[102.2448,15.1339],[102.2314,15.1214],[102.2259,15.12],[102.2214,15.1105],[102.2208,15.1],[102.2146,15.0963],[102.205,15.1009],[102.2042,15.1042],[102.1968,15.0996],[102.1949,15.0924],[102.1813,15.088],[102.1741,15.0922],[102.1647,15.0839],[102.1351,15.0788],[102.1212,15.0608],[102.1205,15.0566],[102.125,15.05],[102.1217,15.0491],[102.12,15.0425],[102.1104,15.038],[102.1064,15.0411],[102.0909,15.0422],[102.0843,15.0371],[102.0825,15.0302],[102.0784,15.0286],[102.0729,15.0329],[102.0647,15.0256],[102.0309,15.0254],[102.0187,15.0333],[102.0108,15.0254],[102.0025,15.0246],[101.9958,15.0292],[101.9907,15.0171],[101.9855,15.0131],[101.9759,15.0118],[101.974,15.0046],[101.9689,15.0006],[101.9395,14.9994],[101.9167,14.9833],[101.9059,14.9879],[101.8983,14.9955],[101.8809,14.9962],[101.8691,15.008],[101.8301,15.009],[101.8283,15.0158],[101.8125,15.0208],[101.8118,15.0283],[101.7925,15.0383],[101.7917,15.0417],[101.7875,15.0417],[101.7833,15.0625],[101.775,15.0708],[101.7684,15.0712],[101.7649,15.0746],[101.7601,15.0754],[101.7566,15.0788],[101.7506,15.0801],[101.7542,15.0792],[101.7533,15.0757],[101.7384,15.0743],[101.7367,15.0675],[101.7233,15.0621],[101.715,15.067],[101.7108,15.0629],[101.6941,15.0621],[101.6858,15.0705],[101.6559,15.0712],[101.6524,15.0746],[101.6441,15.0754],[101.6399,15.0712],[101.6299,15.0699],[101.6286,15.0603],[101.6115,15.0381],[101.5868,15.0369],[101.5784,15.0422],[101.5718,15.0371],[101.5703,15.0311],[101.5583,15.0167],[101.5434,15.0163],[101.5358,15.0087],[101.5267,15.008],[101.515,14.9996],[101.4917,15.0125],[101.4964,15.0259],[101.4912,15.0323],[101.4926,15.0368],[101.5022,15.038]],[[101.9792,15.1583],[101.9795,15.1691],[101.9792,15.1625],[101.9792,15.1583]],[[101.5083,15.1542],[101.5061,15.1536],[101.5108,15.1545],[101.5083,15.1542]],[[101.633,15.2524],[101.6337,15.2434],[101.6333,15.25],[101.633,15.2524]],[[101.6212,15.2684],[101.6208,15.2708],[101.6205,15.2733],[101.6212,15.2684]],[[102.0647,15.1589],[102.0542,15.1583],[102.0517,15.158],[102.0647,15.1589]],[[102.1792,15.175],[102.1726,15.1754],[102.1816,15.1746],[102.1792,15.175]],[[102.027,15.0994],[102.0375,15.1],[102.0333,15.1],[102.027,15.0994]],[[102.0125,15.2417],[102.0167,15.2417],[102.0083,15.2417],[102.0125,15.2417]]]}},{"type":"Feature","properties":{"id":"MUN_UP","name":"ลุ่มมูลตอนบนเหนือ M.2A","outlet":"M.2A","area_km2":4820,"da_rid":4724.0,"diff_pct":2.0,"n_sub":35,"complete":true},"geometry":{"type":"Polygon","coordinates":[[[101.9532,14.3046],[101.9619,14.3186],[101.9675,14.3366],[101.9741,14.3384],[101.9792,14.35],[101.9629,14.3642],[101.9625,14.375],[101.9649,14.3754],[101.9583,14.375],[101.9542,14.3708],[101.9417,14.3708],[101.9355,14.3631],[101.9217,14.3618],[101.9196,14.3536],[101.9134,14.355],[101.8991,14.3783],[101.8924,14.3801],[101.8875,14.4],[101.8715,14.3908],[101.8703,14.377],[101.8652,14.3708],[101.8604,14.3745],[101.848,14.3672],[101.8259,14.3618],[101.8241,14.355],[101.8147,14.3506],[101.805,14.3508],[101.7955,14.3649],[101.7958,14.3583],[101.7833,14.3583],[101.7677,14.3411],[101.7561,14.3422],[101.7507,14.3464],[101.746,14.3446],[101.7411,14.3382],[101.7424,14.33],[101.7506,14.328],[101.7494,14.3145],[101.7392,14.3045],[101.7316,14.3121],[101.725,14.3125],[101.7121,14.3281],[101.7062,14.3298],[101.6928,14.342],[101.6832,14.3613],[101.677,14.3631],[101.655,14.384],[101.6499,14.3988],[101.6299,14.405],[101.6283,14.4158],[101.6228,14.4172],[101.6105,14.4286],[101.6011,14.4336],[101.6,14.4292],[101.5939,14.4328],[101.5512,14.4339],[101.5494,14.427],[101.5409,14.4203],[101.5355,14.4244],[101.5103,14.4297],[101.5042,14.4333],[101.4913,14.4566],[101.4833,14.4625],[101.4842,14.4741],[101.4983,14.4746],[101.5125,14.4625],[101.5241,14.4631],[101.5259,14.4702],[101.5408,14.4715],[101.5467,14.4869],[101.5603,14.4994],[101.566,14.5009],[101.5672,14.5105],[101.5759,14.5244],[101.6038,14.5434],[101.6045,14.5608],[101.6101,14.5663],[101.6292,14.5667],[101.625,14.5667],[101.6256,14.5855],[101.6343,14.5952],[101.648,14.5964],[101.6575,14.6008],[101.6583,14.6042],[101.6647,14.6047],[101.6936,14.6286],[101.7324,14.6298],[101.7375,14.6417],[101.7323,14.6574],[101.7257,14.6594],[101.7243,14.6752],[101.7294,14.6825],[101.7101,14.6837],[101.7066,14.6871],[101.6976,14.6879],[101.692,14.6934],[101.6923,14.7116],[101.6992,14.7134],[101.7051,14.7288],[101.723,14.7381],[101.7436,14.7578],[101.752,14.7619],[101.7733,14.7621],[101.783,14.7483],[101.7841,14.7341],[101.7833,14.7458],[101.7934,14.7538],[101.8149,14.7587],[101.8309,14.7746],[101.8396,14.7792],[101.8434,14.7754],[101.848,14.7756],[101.8603,14.7869],[101.8716,14.7922],[101.8771,14.788],[101.8811,14.7911],[101.898,14.7922],[101.9076,14.7967],[101.9089,14.8064],[101.9129,14.8115],[101.927,14.8203],[101.9449,14.8215],[101.9458,14.825],[101.9601,14.833],[102.025,14.8375],[102.0256,14.8439],[102.0342,14.8575],[102.0559,14.8663],[102.0691,14.8663],[102.0851,14.8587],[102.0958,14.8583],[102.0953,14.8311],[102.0962,14.8608],[102.1059,14.8705],[102.1149,14.8712],[102.1184,14.8746],[102.1358,14.8754],[102.1538,14.8976],[102.1545,14.9108],[102.1621,14.9226],[102.1629,14.9525],[102.1684,14.958],[102.1855,14.9589],[102.2035,14.9676],[102.2049,14.9782],[102.2103,14.9828],[102.2199,14.984],[102.2259,14.9952],[102.2439,14.9964],[102.2561,15.0078],[102.2689,15.0078],[102.2788,15.0032],[102.2842,14.9925],[102.2911,14.9907],[102.2994,14.9814],[102.3006,14.9645],[102.3131,14.951],[102.3115,14.9467],[102.2953,14.9404],[102.2964,14.9353],[102.3007,14.9217],[102.325,14.9125],[102.3246,14.9017],[102.3149,14.892],[102.3083,14.8917],[102.3083,14.8792],[102.3048,14.8782],[102.3036,14.8426],[102.2962,14.8358],[102.2955,14.8226],[102.2879,14.8149],[102.2871,14.7934],[102.2837,14.7899],[102.283,14.7767],[102.2795,14.7733],[102.2798,14.7604],[102.2923,14.7423],[102.2909,14.7253],[102.2855,14.7215],[102.2716,14.7201],[102.2705,14.7101],[102.2663,14.7059],[102.267,14.6892],[102.2708,14.6854],[102.267,14.6816],[102.2663,14.6559],[102.2629,14.6524],[102.2621,14.6434],[102.2504,14.6316],[102.25,14.625],[102.2559,14.6212],[102.2899,14.6205],[102.3146,14.6083],[102.3226,14.6163],[102.3316,14.617],[102.3351,14.6205],[102.3667,14.625],[102.367,14.61],[102.3726,14.6045],[102.3858,14.5996],[102.3976,14.5879],[102.4191,14.583],[102.4254,14.5767],[102.4212,14.5691],[102.4205,14.5351],[102.408,14.5184],[102.4121,14.5108],[102.4129,14.4934],[102.4208,14.4875],[102.4215,14.4801],[102.425,14.4792],[102.425,14.4583],[102.4292,14.4542],[102.4295,14.4392],[102.4371,14.4274],[102.4365,14.3885],[102.4259,14.3831],[102.425,14.3917],[102.3601,14.392],[102.3542,14.3958],[102.3496,14.3851],[102.3379,14.3733],[102.3371,14.3601],[102.3337,14.3566],[102.333,14.3434],[102.3283,14.3342],[102.3189,14.3297],[102.302,14.3286],[102.2814,14.3131],[102.2509,14.3035],[102.2464,14.298],[102.2455,14.2851],[102.2417,14.2792],[102.2342,14.2785],[102.2337,14.2684],[102.2392,14.2629],[102.2522,14.2619],[102.2562,14.2588],[102.2618,14.2631],[102.2741,14.2618],[102.2829,14.2438],[102.2797,14.2397],[102.2792,14.2125],[102.2673,14.198],[102.2659,14.184],[102.2302,14.1827],[102.2281,14.1757],[102.2125,14.175],[102.2079,14.1824],[102.2009,14.1842],[102.1948,14.1952],[102.1708,14.1958],[102.1667,14.2042],[102.1631,14.2033],[102.1619,14.1845],[102.1667,14.1833],[102.167,14.1684],[102.1708,14.1646],[102.167,14.1608],[102.1663,14.1475],[102.16,14.1413],[102.1309,14.142],[102.1233,14.1496],[102.1059,14.1504],[102.1004,14.1559],[102.1,14.1625],[102.077,14.1672],[102.0564,14.1869],[102.0478,14.1881],[102.0314,14.2036],[102.0186,14.2047],[102.0007,14.2134],[102.0,14.2208],[101.9792,14.225],[101.9792,14.2292],[101.9674,14.2301],[101.9659,14.2407],[101.9465,14.2466],[101.9452,14.2688],[101.9375,14.2875],[101.9425,14.2992],[101.9532,14.3046]],[[101.9578,14.6186],[101.9583,14.625],[101.9587,14.6358],[101.9578,14.6186]],[[102.1333,14.3833],[102.1301,14.3826],[102.1358,14.3837],[102.1333,14.3833]],[[102.1226,14.3371],[102.1367,14.3382],[102.125,14.3375],[102.1226,14.3371]],[[102.2542,14.5042],[102.2688,14.5035],[102.2583,14.5042],[102.2542,14.5042]],[[102.2441,14.5288],[102.2208,14.5292],[102.2167,14.5292],[102.2441,14.5288]]]}},{"type":"Feature","properties":{"id":"TAK","name":"ลุ่มลำตะคองเหนือ M.164","outlet":"M.164","area_km2":3230,"da_rid":3033.0,"diff_pct":6.5,"n_sub":22,"complete":true},"geometry":{"type":"Polygon","coordinates":[[[101.4517,14.4496],[101.4371,14.4392],[101.4379,14.4309],[101.4462,14.4225],[101.4455,14.3976],[101.442,14.3941],[101.4417,14.3833],[101.4351,14.3837],[101.4312,14.3875],[101.425,14.3792],[101.405,14.37],[101.4042,14.3667],[101.401,14.3676],[101.399,14.374],[101.3883,14.3795],[101.3868,14.3948],[101.38,14.3968],[101.3744,14.4146],[101.3665,14.4238],[101.3591,14.426],[101.3576,14.4409],[101.3413,14.4423],[101.3354,14.4381],[101.3313,14.441],[101.3139,14.4423],[101.3125,14.4375],[101.3049,14.4383],[101.3035,14.4521],[101.2965,14.4604],[101.295,14.4698],[101.2883,14.4718],[101.2833,14.5],[101.2792,14.5],[101.2786,14.5272],[101.2744,14.5326],[101.2811,14.5411],[101.3033,14.5508],[101.3092,14.5661],[101.325,14.5667],[101.325,14.575],[101.3316,14.5754],[101.3351,14.5788],[101.3524,14.5795],[101.358,14.585],[101.359,14.6074],[101.3696,14.6127],[101.3714,14.6174],[101.3589,14.6353],[101.3578,14.648],[101.3538,14.6532],[101.3468,14.655],[101.3453,14.6591],[101.3547,14.6801],[101.3452,14.6907],[101.3381,14.6926],[101.3381,14.7189],[101.3453,14.727],[101.3509,14.7452],[101.3583,14.7458],[101.359,14.727],[101.358,14.7566],[101.3538,14.7608],[101.3545,14.765],[101.3684,14.7746],[101.3866,14.7756],[101.3925,14.7908],[101.402,14.7953],[101.4583,14.8083],[101.4642,14.8163],[101.4733,14.817],[101.4958,14.8437],[101.492,14.8476],[101.4913,14.8566],[101.4754,14.8726],[101.475,14.8875],[101.4629,14.8975],[101.4625,14.9167],[101.459,14.9176],[101.4576,14.9283],[101.4542,14.9292],[101.4495,14.9647],[101.4411,14.9782],[101.4426,14.9826],[101.4524,14.9837],[101.4642,14.9955],[101.4774,15.0004],[101.4892,15.0121],[101.4941,15.0121],[101.515,14.9996],[101.5267,15.008],[101.5358,15.0087],[101.5434,15.0163],[101.5583,15.0167],[101.5703,15.0311],[101.5718,15.0371],[101.5784,15.0422],[101.5868,15.0369],[101.6115,15.0381],[101.6286,15.0603],[101.6299,15.0699],[101.6399,15.0712],[101.6441,15.0754],[101.6524,15.0746],[101.6559,15.0712],[101.6858,15.0705],[101.6941,15.0621],[101.7108,15.0629],[101.715,15.067],[101.7233,15.0621],[101.7367,15.0675],[101.7384,15.0743],[101.7533,15.0757],[101.7566,15.0788],[101.7684,15.0712],[101.775,15.0708],[101.7833,15.0625],[101.7875,15.0417],[101.7917,15.0417],[101.7925,15.0383],[101.8118,15.0283],[101.8125,15.0208],[101.8283,15.0158],[101.8301,15.009],[101.8691,15.008],[101.8809,14.9962],[101.8983,14.9955],[101.9059,14.9879],[101.9167,14.9833],[101.9395,14.9994],[101.9689,15.0006],[101.974,15.0046],[101.9759,15.0118],[101.9855,15.0131],[101.9907,15.0171],[101.9958,15.0292],[102.0025,15.0246],[102.0108,15.0254],[102.0187,15.0333],[102.0309,15.0254],[102.0647,15.0256],[102.0729,15.0329],[102.0784,15.0286],[102.0825,15.0302],[102.0843,15.0371],[102.0909,15.0422],[102.1064,15.0411],[102.1104,15.038],[102.12,15.0425],[102.1217,15.0491],[102.1288,15.049],[102.137,15.0354],[102.1328,15.0299],[102.134,15.0093],[102.1395,15.0047],[102.1533,15.0035],[102.1542,14.9958],[102.166,14.9908],[102.1672,14.9728],[102.1745,14.9646],[102.1629,14.9525],[102.1621,14.9226],[102.1545,14.9108],[102.1538,14.8976],[102.1358,14.8754],[102.1184,14.8746],[102.1149,14.8712],[102.1059,14.8705],[102.0958,14.8583],[102.0851,14.8587],[102.0691,14.8663],[102.0559,14.8663],[102.0342,14.8575],[102.0256,14.8439],[102.025,14.8375],[101.9601,14.833],[101.9458,14.825],[101.9449,14.8215],[101.927,14.8203],[101.9129,14.8115],[101.9089,14.8064],[101.9076,14.7967],[101.8771,14.788],[101.8716,14.7922],[101.8603,14.7869],[101.848,14.7756],[101.8434,14.7754],[101.8396,14.7792],[101.8309,14.7746],[101.8149,14.7587],[101.7934,14.7538],[101.7858,14.7462],[101.7833,14.7458],[101.7733,14.7621],[101.752,14.7619],[101.7436,14.7578],[101.723,14.7381],[101.7051,14.7288],[101.6992,14.7134],[101.6923,14.7116],[101.692,14.6934],[101.6976,14.6879],[101.7066,14.6871],[101.7101,14.6837],[101.7294,14.6825],[101.7243,14.6752],[101.7257,14.6594],[101.7323,14.6574],[101.7375,14.6417],[101.7324,14.6298],[101.6936,14.6286],[101.6647,14.6047],[101.6583,14.6042],[101.6575,14.6008],[101.648,14.5964],[101.6343,14.5952],[101.6256,14.5855],[101.625,14.5667],[101.6101,14.5663],[101.6045,14.5608],[101.6038,14.5434],[101.5759,14.5244],[101.5672,14.5105],[101.566,14.5009],[101.5603,14.4994],[101.5467,14.4869],[101.5408,14.4715],[101.5259,14.4702],[101.5241,14.4631],[101.5125,14.4625],[101.4983,14.4746],[101.4842,14.4741],[101.4833,14.4625],[101.4708,14.4583],[101.4649,14.4504],[101.4517,14.4496]],[[101.5801,14.9244],[101.6,14.925],[101.6108,14.9254],[101.5917,14.925],[101.5801,14.9244]],[[101.5566,14.6004],[101.5542,14.6],[101.552,14.5994],[101.5566,14.6004]],[[101.5167,14.7417],[101.5167,14.7376],[101.5173,14.749],[101.5167,14.7417]],[[101.9125,14.925],[101.9092,14.9241],[101.9147,14.9256],[101.9125,14.925]],[[101.6858,14.9545],[101.675,14.9542],[101.6684,14.9538],[101.6858,14.9545]]]}},{"type":"Feature","properties":{"id":"STUDY","name":"ลุ่มน้ำเหนือ M.195 (มูล + ลำตะคอง + ลำเชียงไกร)","outlet":"M.195","area_km2":11726,"da_rid":11458.0,"diff_pct":2.3,"n_sub":82,"complete":true},"geometry":{"type":"Polygon","coordinates":[[[101.7833,14.3583],[101.7677,14.3411],[101.7561,14.3422],[101.7507,14.3464],[101.746,14.3446],[101.7411,14.3382],[101.7424,14.33],[101.7506,14.328],[101.7494,14.3145],[101.7392,14.3045],[101.7316,14.3121],[101.725,14.3125],[101.7121,14.3281],[101.7062,14.3298],[101.6928,14.342],[101.6832,14.3613],[101.677,14.3631],[101.655,14.384],[101.6499,14.3988],[101.6299,14.405],[101.6283,14.4158],[101.6228,14.4172],[101.6105,14.4286],[101.6011,14.4336],[101.6,14.4292],[101.5939,14.4328],[101.5512,14.4339],[101.5494,14.427],[101.5409,14.4203],[101.5355,14.4244],[101.5228,14.4256],[101.5042,14.4333],[101.4913,14.4566],[101.4833,14.4625],[101.4708,14.4583],[101.4649,14.4504],[101.4517,14.4496],[101.4434,14.4455],[101.4371,14.4392],[101.4379,14.4309],[101.4462,14.4225],[101.4455,14.3976],[101.442,14.3941],[101.4417,14.3833],[101.4351,14.3837],[101.4312,14.3875],[101.425,14.3792],[101.405,14.37],[101.4042,14.3667],[101.401,14.3676],[101.399,14.374],[101.3883,14.3795],[101.3868,14.3948],[101.38,14.3968],[101.3744,14.4146],[101.3665,14.4238],[101.3591,14.426],[101.3576,14.4409],[101.3413,14.4423],[101.3354,14.4381],[101.3313,14.441],[101.3139,14.4423],[101.3125,14.4375],[101.3049,14.4383],[101.3035,14.4521],[101.2965,14.4604],[101.295,14.4698],[101.2883,14.4718],[101.2833,14.5],[101.2792,14.5],[101.2786,14.5272],[101.2744,14.5326],[101.2811,14.5411],[101.3033,14.5508],[101.3092,14.5661],[101.325,14.5667],[101.325,14.575],[101.3316,14.5754],[101.3351,14.5788],[101.3524,14.5795],[101.358,14.585],[101.359,14.6074],[101.3696,14.6127],[101.3714,14.6174],[101.3589,14.6353],[101.3578,14.648],[101.3538,14.6532],[101.3468,14.655],[101.3453,14.6591],[101.3547,14.6801],[101.3452,14.6907],[101.3381,14.6926],[101.3381,14.7189],[101.3453,14.727],[101.3509,14.7452],[101.3583,14.7458],[101.359,14.727],[101.358,14.7566],[101.3538,14.7608],[101.3545,14.765],[101.3684,14.7746],[101.3866,14.7756],[101.3925,14.7908],[101.402,14.7953],[101.4583,14.8083],[101.4642,14.8163],[101.4733,14.817],[101.4958,14.8437],[101.492,14.8476],[101.4913,14.8566],[101.4754,14.8726],[101.475,14.8875],[101.4629,14.8975],[101.4625,14.9167],[101.459,14.9176],[101.4576,14.9283],[101.4542,14.9292],[101.4495,14.9647],[101.4411,14.9782],[101.4426,14.9826],[101.4524,14.9837],[101.4642,14.9955],[101.4774,15.0004],[101.4917,15.0125],[101.4964,15.0259],[101.4912,15.0323],[101.4926,15.0368],[101.5022,15.038],[101.5076,15.0426],[101.5125,15.0583],[101.4897,15.0745],[101.4616,15.0797],[101.4564,15.0755],[101.443,15.0745],[101.4411,15.0801],[101.4467,15.0908],[101.458,15.0975],[101.4675,15.12],[101.4708,15.1208],[101.4756,15.1382],[101.47,15.1491],[101.4633,15.1509],[101.4616,15.1575],[101.455,15.1592],[101.4505,15.1688],[101.4547,15.1757],[101.4496,15.1824],[101.4423,15.1842],[101.4411,15.198],[101.4339,15.2061],[101.4328,15.2134],[101.4494,15.2353],[101.4536,15.2478],[101.4547,15.2674],[101.4505,15.2729],[101.4536,15.277],[101.4547,15.3105],[101.4667,15.3292],[101.4825,15.3242],[101.4842,15.3175],[101.4913,15.3157],[101.4967,15.305],[101.5,15.3042],[101.5009,15.3077],[101.5257,15.3089],[101.5313,15.3046],[101.5436,15.3119],[101.5658,15.3131],[101.5708,15.3292],[101.5892,15.317],[101.6,15.3167],[101.6004,15.3274],[101.6045,15.3358],[101.61,15.3413],[101.6274,15.3462],[101.633,15.3517],[101.6371,15.3601],[101.6375,15.375],[101.6493,15.3703],[101.6603,15.3744],[101.6814,15.3756],[101.6895,15.3828],[101.7022,15.3839],[101.7198,15.4006],[101.7283,15.3993],[101.73,15.3925],[101.7395,15.3881],[101.7574,15.3869],[101.7583,15.3833],[101.7772,15.3839],[101.7895,15.3953],[101.8272,15.4006],[101.845,15.4092],[101.8458,15.4125],[101.852,15.4089],[101.8658,15.4077],[101.8667,15.4042],[101.9,15.4042],[101.9047,15.4189],[101.9119,15.427],[101.9132,15.4366],[101.9208,15.4417],[101.925,15.4542],[101.935,15.4587],[101.9392,15.4545],[101.9642,15.4538],[101.9684,15.458],[101.9858,15.4587],[101.9917,15.4667],[101.9958,15.4667],[101.9967,15.4632],[102.0125,15.4583],[102.0132,15.4509],[102.0371,15.4407],[102.0411,15.4355],[102.042,15.4226],[102.0458,15.4167],[102.0455,15.3934],[102.0333,15.3812],[102.0455,15.3691],[102.0462,15.3434],[102.0458,15.3625],[102.0564,15.3619],[102.0686,15.3506],[102.0824,15.3493],[102.0842,15.3425],[102.091,15.3408],[102.0923,15.326],[102.0991,15.3203],[102.1147,15.3214],[102.1201,15.3256],[102.1311,15.3172],[102.149,15.316],[102.1578,15.3064],[102.1535,15.2962],[102.159,15.2812],[102.1702,15.2688],[102.1744,15.2562],[102.1702,15.2503],[102.1716,15.2341],[102.1833,15.2333],[102.195,15.2383],[102.197,15.2464],[102.2189,15.2453],[102.2228,15.2422],[102.2397,15.2411],[102.2451,15.2369],[102.253,15.2419],[102.2551,15.234],[102.2689,15.2328],[102.2854,15.2255],[102.3083,15.2375],[102.3316,15.2371],[102.3351,15.2337],[102.3774,15.2337],[102.4017,15.2455],[102.4108,15.2462],[102.415,15.2504],[102.4399,15.2496],[102.4566,15.2371],[102.4733,15.2379],[102.4792,15.2417],[102.4792,15.2375],[102.4833,15.2375],[102.4871,15.2316],[102.4875,15.2125],[102.4824,15.2006],[102.473,15.1922],[102.4592,15.191],[102.4583,15.1875],[102.4392,15.1871],[102.4316,15.1795],[102.425,15.1792],[102.4129,15.1649],[102.408,15.1476],[102.4004,15.1399],[102.3871,15.1142],[102.3879,15.0934],[102.3962,15.085],[102.3955,15.0726],[102.3879,15.0649],[102.3871,15.0517],[102.3754,15.0358],[102.3746,14.9934],[102.3587,14.9649],[102.3583,14.9583],[102.3311,14.9494],[102.3256,14.9448],[102.3244,14.9201],[102.3294,14.9136],[102.325,14.9125],[102.3246,14.9017],[102.3149,14.892],[102.3083,14.8917],[102.3083,14.8792],[102.3048,14.8782],[102.3036,14.8426],[102.2962,14.8358],[102.2955,14.8226],[102.2879,14.8149],[102.2871,14.7934],[102.2837,14.7899],[102.283,14.7767],[102.2795,14.7733],[102.2798,14.7604],[102.2923,14.7423],[102.2909,14.7253],[102.2855,14.7215],[102.2716,14.7201],[102.2705,14.7101],[102.2663,14.7059],[102.267,14.6892],[102.2708,14.6854],[102.267,14.6816],[102.2663,14.6559],[102.2629,14.6524],[102.2621,14.6434],[102.25,14.6292],[102.25,14.625],[102.2559,14.6212],[102.2899,14.6205],[102.3146,14.6083],[102.3226,14.6163],[102.3316,14.617],[102.3351,14.6205],[102.3667,14.625],[102.367,14.61],[102.3726,14.6045],[102.3858,14.5996],[102.3976,14.5879],[102.4191,14.583],[102.4254,14.5767],[102.4212,14.5691],[102.4205,14.5351],[102.408,14.5184],[102.4121,14.5108],[102.4129,14.4934],[102.4208,14.4875],[102.4215,14.4801],[102.425,14.4792],[102.425,14.4583],[102.4292,14.4542],[102.4295,14.4392],[102.4371,14.4274],[102.4375,14.3917],[102.4365,14.3885],[102.4259,14.3831],[102.425,14.3917],[102.3601,14.392],[102.3542,14.3958],[102.3496,14.3851],[102.3379,14.3733],[102.3371,14.3601],[102.3337,14.3566],[102.333,14.3434],[102.3283,14.3342],[102.3189,14.3297],[102.302,14.3286],[102.2814,14.3131],[102.2509,14.3035],[102.2464,14.298],[102.2455,14.2851],[102.2417,14.2792],[102.2342,14.2785],[102.2337,14.2684],[102.2392,14.2629],[102.2522,14.2619],[102.2562,14.2588],[102.2618,14.2631],[102.2741,14.2618],[102.2829,14.2438],[102.2797,14.2397],[102.2792,14.2125],[102.2673,14.198],[102.2659,14.184],[102.2302,14.1827],[102.2281,14.1757],[102.2125,14.175],[102.2079,14.1824],[102.2009,14.1842],[102.1948,14.1952],[102.1708,14.1958],[102.1667,14.2042],[102.1631,14.2033],[102.1619,14.1845],[102.1667,14.1833],[102.167,14.1684],[102.1708,14.1646],[102.167,14.1608],[102.1663,14.1475],[102.16,14.1413],[102.1309,14.142],[102.1233,14.1496],[102.1059,14.1504],[102.1004,14.1559],[102.1,14.1625],[102.077,14.1672],[102.0564,14.1869],[102.0478,14.1881],[102.0314,14.2036],[102.0186,14.2047],[102.0007,14.2134],[102.0,14.2208],[101.9792,14.225],[101.9792,14.2292],[101.9674,14.2301],[101.9659,14.2407],[101.9465,14.2466],[101.9452,14.2688],[101.9381,14.2812],[101.9381,14.2897],[101.9425,14.2992],[101.9532,14.3046],[101.9619,14.3186],[101.9675,14.3366],[101.9741,14.3384],[101.9792,14.35],[101.9629,14.3642],[101.9625,14.375],[101.9649,14.3754],[101.9583,14.375],[101.9542,14.3708],[101.9417,14.3708],[101.9355,14.3631],[101.9217,14.3618],[101.9196,14.3536],[101.9134,14.355],[101.8991,14.3783],[101.8924,14.3801],[101.8875,14.4],[101.8715,14.3908],[101.8703,14.377],[101.8652,14.3708],[101.8604,14.3745],[101.848,14.3672],[101.8259,14.3618],[101.8241,14.355],[101.8147,14.3506],[101.805,14.3508],[101.7955,14.3649],[101.7958,14.3583],[101.7833,14.3583]],[[101.7542,15.0792],[101.7566,15.0788],[101.7506,15.0801],[101.7542,15.0792]],[[101.7733,14.7621],[101.7708,14.7625],[101.7667,14.7625],[101.7733,14.7621]],[[101.7841,14.7341],[101.7833,14.7458],[101.783,14.7483],[101.7841,14.7341]],[[101.9578,14.6186],[101.9583,14.625],[101.9587,14.6358],[101.9578,14.6186]],[[102.1333,14.3833],[102.1301,14.3826],[102.1358,14.3837],[102.1333,14.3833]],[[102.1226,14.3371],[102.1367,14.3382],[102.125,14.3375],[102.1226,14.3371]],[[101.7367,15.0675],[101.7309,15.0663],[101.7333,15.0667],[101.7367,15.0675]],[[101.4983,14.4746],[101.4917,14.475],[101.4875,14.475],[101.4983,14.4746]],[[101.6101,14.5663],[101.6292,14.5667],[101.6167,14.5667],[101.6101,14.5663]],[[101.5542,14.6],[101.552,14.5994],[101.5566,14.6004],[101.5542,14.6]],[[101.5167,14.7376],[101.5173,14.749],[101.5167,14.7417],[101.5167,14.7376]],[[101.5801,14.9244],[101.6,14.925],[101.6108,14.9254],[101.5917,14.925],[101.5801,14.9244]],[[101.6684,14.9538],[101.6858,14.9545],[101.675,14.9542],[101.6684,14.9538]],[[101.5061,15.1536],[101.5108,15.1545],[101.5083,15.1542],[101.5061,15.1536]],[[101.6333,15.25],[101.633,15.2524],[101.6337,15.2434],[101.6333,15.25]],[[101.6208,15.2708],[101.6205,15.2733],[101.6212,15.2684],[101.6208,15.2708]],[[102.0517,15.158],[102.0647,15.1589],[102.0542,15.1583],[102.0517,15.158]],[[102.0375,15.1],[102.0333,15.1],[102.027,15.0994],[102.0375,15.1]],[[101.9792,15.1625],[101.9792,15.1583],[101.9795,15.1691],[101.9792,15.1625]],[[101.9147,14.9256],[101.9125,14.925],[101.9092,14.9241],[101.9147,14.9256]],[[101.9657,15.1087],[101.9667,15.1125],[101.9667,15.1125],[101.9657,15.1087]],[[102.0125,15.2417],[102.0167,15.2417],[102.0083,15.2417],[102.0125,15.2417]],[[102.2583,14.5042],[102.2542,14.5042],[102.2688,14.5035],[102.2583,14.5042]],[[102.0962,14.8608],[102.0958,14.8583],[102.0953,14.8311],[102.0958,14.8542],[102.0962,14.8608]],[[102.2208,14.5292],[102.2167,14.5292],[102.2441,14.5288],[102.2208,14.5292]],[[102.1587,14.9191],[102.158,14.9142],[102.1583,14.9167],[102.1587,14.9191]],[[102.1708,14.9583],[102.1684,14.958],[102.1855,14.9589],[102.1708,14.9583]],[[102.1792,15.175],[102.1726,15.1754],[102.1816,15.1746],[102.1792,15.175]],[[102.3858,15.2004],[102.3792,15.2],[102.3833,15.2],[102.3858,15.2004]]]}}]}