{"type":"FeatureCollection","source":"ปภ. และ อบต. (ส่งมอบให้โครงการ · Google My Maps \"Chan-At Flood SDSS\")","n":64,"features":[{"type":"Feature","properties":{"seq":1,"name":"อ่างเก็บน้ำลำเชียงไกร","name_src":"อ่างเก็บน้ำลำเชียงไกร","type":"reservoir","tcode":"300907","tambon":"บัลลังก์","amphoe":"โนนไทย"},"geometry":{"type":"Point","coordinates":[101.887763,15.214852]}},{"type":"Feature","properties":{"seq":2,"name":"แก้มลิงบ้านคูเมือง","name_src":"แก้มลิงบ้านคูเมือง","type":"retention","tcode":"300907","tambon":"บัลลังก์","amphoe":"โนนไทย"},"geometry":{"type":"Point","coordinates":[101.915986,15.205989]}},{"type":"Feature","properties":{"seq":3,"name":"อาคารบังคับน้ำบ้านดอนมะยม","name_src":"อาคารบังคับน้ำบ้านดอนมะยม","type":"gate","tcode":"300907","tambon":"บัลลังก์","amphoe":"โนนไทย"},"geometry":{"type":"Point","coordinates":[101.918609,15.203854]}},{"type":"Feature","properties":{"seq":4,"name":"อาคารระบายน้ำบ้านดอนตำแย","name_src":"อาคารระบายนํ้าบ้านดอนตำเเย","type":"drain","tcode":"300907","tambon":"บัลลังก์","amphoe":"โนนไทย"},"geometry":{"type":"Point","coordinates":[101.934034,15.181436]}},{"type":"Feature","properties":{"seq":5,"name":"อาคารบังคับน้ำบ้านหนองแวง","name_src":"อาคารบังคับนํ้าบ้านหนองเเวง","type":"gate","tcode":"300907","tambon":"บัลลังก์","amphoe":"โนนไทย"},"geometry":{"type":"Point","coordinates":[101.947127,15.178633]}},{"type":"Feature","properties":{"seq":6,"name":"อาคารบังคับน้ำบ้านโนนหินขาว","name_src":"อาคารบ้งคับนํ้าบ้านโนนหินขาว","type":"gate","tcode":"300904","tambon":"สำโรง","amphoe":"โนนไทย"},"geometry":{"type":"Point","coordinates":[101.989561,15.167222]}},{"type":"Feature","properties":{"seq":7,"name":"อาคารระบายน้ำบ้านโนนสำโรง-ดอนงิ้ว","name_src":"อาคารระบายน้ำบ้านโนนสำโรง-ดอนงิ้ว","type":"drain","tcode":"300904","tambon":"สำโรง","amphoe":"โนนไทย"},"geometry":{"type":"Point","coordinates":[102.007716,15.142457]}},{"type":"Feature","properties":{"seq":8,"name":"อาคารบังคับน้ำบ้านฝาง","name_src":"อาคารบังคับน้ำบ้านฝาง","type":"gate","tcode":"300904","tambon":"สำโรง","amphoe":"โนนไทย"},"geometry":{"type":"Point","coordinates":[102.011226,15.128299]}},{"type":"Feature","properties":{"seq":9,"name":"อาคารบังคับน้ำบ้านฝาง-2","name_src":"อาคารบังคับน้ำบ้านฝาง-2","type":"gate","tcode":"300904","tambon":"สำโรง","amphoe":"โนนไทย"},"geometry":{"type":"Point","coordinates":[102.012546,15.127866]}},{"type":"Feature","properties":{"seq":10,"name":"อาคารบังคับน้ำบ้านฝาง-3","name_src":"อาคารบังคับน้ำบ้านฝาง-3","type":"gate","tcode":"300904","tambon":"สำโรง","amphoe":"โนนไทย"},"geometry":{"type":"Point","coordinates":[102.011618,15.126552]}},{"type":"Feature","properties":{"seq":11,"name":"อาคารบังคับน้ำท่าหินแร่","name_src":"อาคารบังคับน้ำท่าหินแร่","type":"gate","tcode":"300904","tambon":"สำโรง","amphoe":"โนนไทย"},"geometry":{"type":"Point","coordinates":[102.014402,15.118471]}},{"type":"Feature","properties":{"seq":12,"name":"อาคารบังคับน้ำบ้านสระพัง-ทรงธรรม","name_src":"อาคารบังคับน้ำบ้านสระพัง-ทรงธรรม","type":"gate","tcode":"300904","tambon":"สำโรง","amphoe":"โนนไทย"},"geometry":{"type":"Point","coordinates":[102.020189,15.117087]}},{"type":"Feature","properties":{"seq":13,"name":"อาคารบังคับน้ำบ้านสระพัง","name_src":"อาคารบังคับน้ำบ้านสระพัง","type":"gate","tcode":"300904","tambon":"สำโรง","amphoe":"โนนไทย"},"geometry":{"type":"Point","coordinates":[102.027735,15.111442]}},{"type":"Feature","properties":{"seq":14,"name":"อาคารบังคับน้ำลำจอก","name_src":"อาคารบังคับน้ำลำจอก","type":"gate","tcode":"300903","tambon":"กำปัง","amphoe":"โนนไทย"},"geometry":{"type":"Point","coordinates":[102.046651,15.101099]}},{"type":"Feature","properties":{"seq":15,"name":"อาคารบังคับน้ำบ้านจาน","name_src":"อาคารบังคับน้ำบ้านจาน","type":"gate","tcode":"300903","tambon":"กำปัง","amphoe":"โนนไทย"},"geometry":{"type":"Point","coordinates":[102.060171,15.101759]}},{"type":"Feature","properties":{"seq":16,"name":"อาคารบังคับน้ำบ้านจาน-2","name_src":"อาคารบังคับน้ำบ้านจาน-2","type":"gate","tcode":"300903","tambon":"กำปัง","amphoe":"โนนไทย"},"geometry":{"type":"Point","coordinates":[102.063454,15.102225]}},{"type":"Feature","properties":{"seq":17,"name":"อาคารบังคับน้ำบ้านจาน-3","name_src":"อาคารบังคับน้ำบ้านจาน-3","type":"gate","tcode":"300903","tambon":"กำปัง","amphoe":"โนนไทย"},"geometry":{"type":"Point","coordinates":[102.064188,15.104606]}},{"type":"Feature","properties":{"seq":18,"name":"อาคารบังคับน้ำบ้านจาน-4","name_src":"อาคารบังคับน้ำบ้านจาน-4","type":"gate","tcode":"300903","tambon":"กำปัง","amphoe":"โนนไทย"},"geometry":{"type":"Point","coordinates":[102.068184,15.109338]}},{"type":"Feature","properties":{"seq":19,"name":"อาคารบังคับน้ำจอก-โนนหัว","name_src":"อาคารบังคับน้ำจอก-โนนหัว","type":"gate","tcode":"300903","tambon":"กำปัง","amphoe":"โนนไทย"},"geometry":{"type":"Point","coordinates":[102.076323,15.117389]}},{"type":"Feature","properties":{"seq":20,"name":"ฝายน้ำล้นลำเชียงไกร(รพช.) (แห่งที่ 1)","name_src":"ฝายน้ำล้นลำเชียงไกร(รพช.)","type":"weir","tcode":"300903","tambon":"กำปัง","amphoe":"โนนไทย"},"geometry":{"type":"Point","coordinates":[102.080294,15.124708]}},{"type":"Feature","properties":{"seq":21,"name":"อาคารบังคับน้ำบ้านกุดโพธิ์","name_src":"อาคารบังคับน้ำบ้านกุดโพธิ์","type":"gate","tcode":"300903","tambon":"กำปัง","amphoe":"โนนไทย"},"geometry":{"type":"Point","coordinates":[102.038912,15.128772]}},{"type":"Feature","properties":{"seq":22,"name":"อาคารบังคับน้ำบ้านกุดโพธิ์-2","name_src":"อาคารบังคับน้ำบ้านกุดโพธิ์-2","type":"gate","tcode":"300903","tambon":"กำปัง","amphoe":"โนนไทย"},"geometry":{"type":"Point","coordinates":[102.042357,15.125349]}},{"type":"Feature","properties":{"seq":23,"name":"อาคารระบายน้ำฝายคลองลุง","name_src":"อาคารระบายน้ำฝายคลองลุง","type":"drain","tcode":"300903","tambon":"กำปัง","amphoe":"โนนไทย"},"geometry":{"type":"Point","coordinates":[102.068583,15.127353]}},{"type":"Feature","properties":{"seq":24,"name":"ฝายบ้านคลองกอก","name_src":"ฝายบ้านคลองกอก","type":"weir","tcode":"300903","tambon":"กำปัง","amphoe":"โนนไทย"},"geometry":{"type":"Point","coordinates":[102.036464,15.119365]}},{"type":"Feature","properties":{"seq":25,"name":"ฝายบ้านคลองกอก-2","name_src":"ฝายบ้านคลองกอก-2","type":"weir","tcode":"300903","tambon":"กำปัง","amphoe":"โนนไทย"},"geometry":{"type":"Point","coordinates":[102.043107,15.116967]}},{"type":"Feature","properties":{"seq":26,"name":"อาคารระบายน้ำฝายบ้านจาน","name_src":"อาคารระบายน้ำฝายบ้านจาน","type":"drain","tcode":"300903","tambon":"กำปัง","amphoe":"โนนไทย"},"geometry":{"type":"Point","coordinates":[102.064558,15.117257]}},{"type":"Feature","properties":{"seq":27,"name":"อาคารระบายน้ำฝายบ้านจาน-2","name_src":"อาคารระบายน้ำฝายบ้านจาน-2","type":"drain","tcode":"300903","tambon":"กำปัง","amphoe":"โนนไทย"},"geometry":{"type":"Point","coordinates":[102.066483,15.119763]}},{"type":"Feature","properties":{"seq":28,"name":"อาคารบังคับน้ำบ้านอ้อ","name_src":"อาคารบังคับน้ำบ้านอ้อ","type":"gate","tcode":"300903","tambon":"กำปัง","amphoe":"โนนไทย"},"geometry":{"type":"Point","coordinates":[102.085902,15.127159]}},{"type":"Feature","properties":{"seq":29,"name":"อาคารระบายน้ำโค้งผีน้อย","name_src":"อาคารระบายน้ำโค้งผีน้อย","type":"drain","tcode":null,"tambon":null,"amphoe":null},"geometry":{"type":"Point","coordinates":[102.100745,15.130833]}},{"type":"Feature","properties":{"seq":30,"name":"อาคารบังคับน้ำบ้านลำเชียงไกร","name_src":"อาคารบังคับน้ำบ้านลำเชียงไกร","type":"gate","tcode":"300902","tambon":"ด่านจาก","amphoe":"โนนไทย"},"geometry":{"type":"Point","coordinates":[102.102926,15.13393]}},{"type":"Feature","properties":{"seq":31,"name":"อาคารบังคับน้ำบ้านหนองกระสัง","name_src":"อาคารบังคับน้ำบ้านหนองกระสัง","type":"gate","tcode":null,"tambon":null,"amphoe":null},"geometry":{"type":"Point","coordinates":[102.109094,15.131907]}},{"type":"Feature","properties":{"seq":32,"name":"ฝายน้ำล้นลำเชียงไกร(รพช.) (แห่งที่ 2)","name_src":"ฝายน้ำล้นลำเชียงไกร(รพช.)","type":"weir","tcode":"300902","tambon":"ด่านจาก","amphoe":"โนนไทย"},"geometry":{"type":"Point","coordinates":[102.112245,15.137673]}},{"type":"Feature","properties":{"seq":33,"name":"ระบบส่งน้ำลำเชียงไกร(รพช.)","name_src":"ระบบส่งน้ำลำเชียงไกร(รพช.)","type":"canal","tcode":null,"tambon":null,"amphoe":null},"geometry":{"type":"Point","coordinates":[102.116305,15.135643]}},{"type":"Feature","properties":{"seq":34,"name":"อาคารบังคับน้ำบ้านด่านติง","name_src":"อาคารบังคับน้ำบ้านด่านติง","type":"gate","tcode":"301010","tambon":"จันอัด","amphoe":"โนนสูง"},"geometry":{"type":"Point","coordinates":[102.12961,15.136003]}},{"type":"Feature","properties":{"seq":35,"name":"อาคารบังคับน้ำบ้านโค้งกระพี้","name_src":"อาคารบังคับน้ำบ้านโค้งกระพี้","type":"gate","tcode":"301010","tambon":"จันอัด","amphoe":"โนนสูง"},"geometry":{"type":"Point","coordinates":[102.151218,15.143801]}},{"type":"Feature","properties":{"seq":36,"name":"อาคารบังคับน้ำบ้านโค้งกระพี้-2","name_src":"อาคารบังคับน้ำบ้านโค้งกระพี้-2","type":"gate","tcode":"301010","tambon":"จันอัด","amphoe":"โนนสูง"},"geometry":{"type":"Point","coordinates":[102.154625,15.143401]}},{"type":"Feature","properties":{"seq":37,"name":"อาคารบังคับน้ำบ้านจันอัด","name_src":"อาคารบังคับน้ำบ้านจันอัด","type":"gate","tcode":"301010","tambon":"จันอัด","amphoe":"โนนสูง"},"geometry":{"type":"Point","coordinates":[102.156698,15.151798]}},{"type":"Feature","properties":{"seq":38,"name":"อาคารบังคับน้ำบ้านสำโรง","name_src":"อาคารบังคับน้ำบ้านสำโรง","type":"gate","tcode":"301010","tambon":"จันอัด","amphoe":"โนนสูง"},"geometry":{"type":"Point","coordinates":[102.167233,15.169233]}},{"type":"Feature","properties":{"seq":39,"name":"อาคารบังคับน้ำท่าตะโก","name_src":"อาคารบังคับน้ำท่าตะโก","type":"gate","tcode":"301010","tambon":"จันอัด","amphoe":"โนนสูง"},"geometry":{"type":"Point","coordinates":[102.171208,15.176397]}},{"type":"Feature","properties":{"seq":40,"name":"อาคารบังคับน้ำท่าตะโก-2","name_src":"อาคารบังคับน้ำท่าตะโก-2","type":"gate","tcode":"301014","tambon":"เมืองปราสาท","amphoe":"โนนสูง"},"geometry":{"type":"Point","coordinates":[102.170102,15.182965]}},{"type":"Feature","properties":{"seq":41,"name":"อาคารบังคับน้ำปากคลองเปลือย","name_src":"อาคารบังคับน้ำปากคลองเปลือย","type":"gate","tcode":"301014","tambon":"เมืองปราสาท","amphoe":"โนนสูง"},"geometry":{"type":"Point","coordinates":[102.173528,15.185356]}},{"type":"Feature","properties":{"seq":42,"name":"อาคารบังคับน้ำบ้านคล้าเก่า","name_src":"อาคารบังคับน้ำบ้านคล้าเก่า","type":"gate","tcode":"301014","tambon":"เมืองปราสาท","amphoe":"โนนสูง"},"geometry":{"type":"Point","coordinates":[102.17437,15.188706]}},{"type":"Feature","properties":{"seq":43,"name":"อาคารระบายน้ำปากคลองทำนบลาว","name_src":"อาคารระบายน้ำปากคลองทำนบลาว","type":"drain","tcode":"301014","tambon":"เมืองปราสาท","amphoe":"โนนสูง"},"geometry":{"type":"Point","coordinates":[102.178579,15.191176]}},{"type":"Feature","properties":{"seq":44,"name":"อาคารระบายน้ำลำเชียงไกรเก่า","name_src":"อาคารระบายน้ำลำเชียงไกรเก่า","type":"drain","tcode":"301014","tambon":"เมืองปราสาท","amphoe":"โนนสูง"},"geometry":{"type":"Point","coordinates":[102.182696,15.188487]}},{"type":"Feature","properties":{"seq":45,"name":"อาคารบังคับน้ำบ้านคล้า","name_src":"อาคารบังคับน้ำบ้านคล้า","type":"gate","tcode":"301014","tambon":"เมืองปราสาท","amphoe":"โนนสูง"},"geometry":{"type":"Point","coordinates":[102.18575,15.185406]}},{"type":"Feature","properties":{"seq":46,"name":"สะพานบ้านโค้งกระพี้-บ้านคล้า","name_src":"สะพานบ้านโค้งกระพี้-บ้านคล้า","type":"bridge","tcode":"301014","tambon":"เมืองปราสาท","amphoe":"โนนสูง"},"geometry":{"type":"Point","coordinates":[102.188719,15.184079]}},{"type":"Feature","properties":{"seq":47,"name":"อาคารบังคับน้ำบ้านโนนคลาม","name_src":"อาคารบังคับน้ำบ้านโนนคลาม","type":"gate","tcode":"301014","tambon":"เมืองปราสาท","amphoe":"โนนสูง"},"geometry":{"type":"Point","coordinates":[102.195291,15.182259]}},{"type":"Feature","properties":{"seq":48,"name":"สะพานบ้านโค้งมะกอก","name_src":"สะพานบ้านโค้งมะกอก","type":"bridge","tcode":"301014","tambon":"เมืองปราสาท","amphoe":"โนนสูง"},"geometry":{"type":"Point","coordinates":[102.208598,15.190355]}},{"type":"Feature","properties":{"seq":49,"name":"อาคารบังคับน้ำบ้านโค้งมะกอก","name_src":"อาคารบังคับน้ำบ้านโค้งมะกอก","type":"gate","tcode":"301012","tambon":"ด่านคล้า","amphoe":"โนนสูง"},"geometry":{"type":"Point","coordinates":[102.20939,15.180362]}},{"type":"Feature","properties":{"seq":50,"name":"อาคารบังคับน้ำบ้านหนองอ้อ","name_src":"อาคารบังคับน้ำบ้านหนองอ้อ","type":"gate","tcode":"301014","tambon":"เมืองปราสาท","amphoe":"โนนสูง"},"geometry":{"type":"Point","coordinates":[102.226119,15.18563]}},{"type":"Feature","properties":{"seq":51,"name":"อาคารบังคับน้ำบ้านเพิ่ม","name_src":"อาคารบังคับน้ำบ้านเพิ่ม","type":"gate","tcode":"301001","tambon":"โนนสูง","amphoe":"โนนสูง"},"geometry":{"type":"Point","coordinates":[102.24238,15.185237]}},{"type":"Feature","properties":{"seq":52,"name":"แก้มลิงชุมชนสวนผัก-พร้อมอาคารประกอบ","name_src":"แก้มลิงชุมชนสวนผัก-พร้อมอาคารประกอบ","type":"retention","tcode":"301001","tambon":"โนนสูง","amphoe":"โนนสูง"},"geometry":{"type":"Point","coordinates":[102.250422,15.187087]}},{"type":"Feature","properties":{"seq":53,"name":"อาคารบังคับน้ำบ้านบัว","name_src":"อาคารบังคับน้ำบ้านบัว","type":"gate","tcode":"301001","tambon":"โนนสูง","amphoe":"โนนสูง"},"geometry":{"type":"Point","coordinates":[102.263911,15.176929]}},{"type":"Feature","properties":{"seq":54,"name":"อาคารบังคับน้ำบ้านเพราม","name_src":"อาคารบังคับน้ำบ้านเพราม","type":"gate","tcode":"301007","tambon":"หลุมข้าว","amphoe":"โนนสูง"},"geometry":{"type":"Point","coordinates":[102.282661,15.170638]}},{"type":"Feature","properties":{"seq":55,"name":"อาคารบังคับน้ำบ้านซาด","name_src":"อาคารบังคับน้ำบ้านซาด","type":"gate","tcode":"301007","tambon":"หลุมข้าว","amphoe":"โนนสูง"},"geometry":{"type":"Point","coordinates":[102.297927,15.179785]}},{"type":"Feature","properties":{"seq":56,"name":"อาคารบังคับน้ำบ้านซาด-2","name_src":"อาคารบังคับน้ำบ้านซาด-2","type":"gate","tcode":"301007","tambon":"หลุมข้าว","amphoe":"โนนสูง"},"geometry":{"type":"Point","coordinates":[102.29443,15.177977]}},{"type":"Feature","properties":{"seq":57,"name":"อาคารบังคับน้ำบ้านมะระ","name_src":"อาคารบังคับน้ำบ้านมะระ","type":"gate","tcode":"301007","tambon":"หลุมข้าว","amphoe":"โนนสูง"},"geometry":{"type":"Point","coordinates":[102.310277,15.18694]}},{"type":"Feature","properties":{"seq":58,"name":"อาคารระบายน้ำหนองอ้อ และแก้มลิงหนองอ้อ","name_src":"อาคารระบายน้ำหนองอ้อ และแก้มลิงหนองอ้อ","type":"drain","tcode":"301005","tambon":"ดอนชมพู","amphoe":"โนนสูง"},"geometry":{"type":"Point","coordinates":[102.322968,15.193216]}},{"type":"Feature","properties":{"seq":59,"name":"อาคารบังคับน้ำบ้านท่ากระทุ่ม","name_src":"อาคารบังคบน้ำบ้านท่ากระทุ่ม","type":"gate","tcode":"301005","tambon":"ดอนชมพู","amphoe":"โนนสูง"},"geometry":{"type":"Point","coordinates":[102.3283,15.195957]}},{"type":"Feature","properties":{"seq":60,"name":"อาคารบังคับน้ำบ้านท่ากระทุ่ม-2","name_src":"อาคารบังคบน้ำบ้านท่ากระทุ่ม-2","type":"gate","tcode":"301005","tambon":"ดอนชมพู","amphoe":"โนนสูง"},"geometry":{"type":"Point","coordinates":[102.345137,15.201753]}},{"type":"Feature","properties":{"seq":61,"name":"อาคารระบายน้ำปากคลองบ้านส้ม(แห่ง1)","name_src":"อาคารระบายน้ำปากคลองบ้านส้ม(แห่ง1)","type":"drain","tcode":"301005","tambon":"ดอนชมพู","amphoe":"โนนสูง"},"geometry":{"type":"Point","coordinates":[102.357507,15.195267]}},{"type":"Feature","properties":{"seq":62,"name":"อาคารระบายน้ำปากคลองบ้านส้ม(แห่ง2)","name_src":"อาคารระบายน้ำปากคลองบ้านส้ม(แห่ง2)","type":"drain","tcode":"301005","tambon":"ดอนชมพู","amphoe":"โนนสูง"},"geometry":{"type":"Point","coordinates":[102.357459,15.193708]}},{"type":"Feature","properties":{"seq":63,"name":"ท่อระบายน้ำปากคลอง(ฝายบ้านส้ม)","name_src":"ท่อระบายน้ำปากคลอง(ฝายบ้านส้ม)","type":"drain","tcode":"301005","tambon":"ดอนชมพู","amphoe":"โนนสูง"},"geometry":{"type":"Point","coordinates":[102.358768,15.189711]}},{"type":"Feature","properties":{"seq":64,"name":"ลำน้ำมูล","name_src":"ลำน้ำมูล","type":"river","tcode":"301005","tambon":"ดอนชมพู","amphoe":"โนนสูง"},"geometry":{"type":"Point","coordinates":[102.375511,15.187307]}}]}