{"type":"FeatureCollection","source":"ขอบเขตการปกครองระดับตำบล (shapefile NR_admin3 · adm3_pcode · valid_on 2022-01-22)","features":[{"type":"Feature","properties":{"tcode":"300901","name":"โนนไทย","amphoe":"โนนไทย","acode":"3009","area_km2":68.47,"lat":15.21282,"lon":102.06351,"station_code":null,"s_class":null,"bldg":10146,"basin":"LCK"},"geometry":{"type":"Polygon","coordinates":[[[102.07186,15.25924],[102.07205,15.25054],[102.07128,15.24198],[102.07116,15.23723],[102.07136,15.23547],[102.07229,15.23385],[102.07372,15.23381],[102.07655,15.23168],[102.07847,15.23093],[102.08326,15.23041],[102.08458,15.23053],[102.08515,15.2298],[102.08607,15.22942],[102.08597,15.22831],[102.08638,15.2276],[102.08887,15.22615],[102.09295,15.22629],[102.09632,15.22595],[102.09692,15.22562],[102.09769,15.2237],[102.09966,15.22389],[102.10313,15.22293],[102.10882,15.22069],[102.10597,15.21307],[102.1012,15.20191],[102.09763,15.19576],[102.09341,15.18961],[102.09356,15.18858],[102.09333,15.18801],[102.09254,15.18769],[102.08873,15.18776],[102.08381,15.18683],[102.08301,15.18585],[102.08205,15.18537],[102.07717,15.18555],[102.0757,15.18526],[102.07957,15.18073],[102.08238,15.17879],[102.08195,15.1776],[102.07722,15.17197],[102.07363,15.17],[102.07072,15.16917],[102.06728,15.1695],[102.05985,15.16572],[102.05718,15.16505],[102.05553,15.1651],[102.05419,15.16561],[102.04976,15.1692],[102.04783,15.17246],[102.04654,15.17381],[102.0456,15.17451],[102.04207,15.17582],[102.0392,15.1788],[102.03719,15.18016],[102.03445,15.18058],[102.03183,15.17956],[102.02897,15.17932],[102.02606,15.17962],[102.02148,15.17891],[102.02069,15.17993],[102.01968,15.18017],[102.01952,15.18165],[102.0198,15.18382],[102.01866,15.18942],[102.01816,15.1903],[102.01813,15.19141],[102.01665,15.19627],[102.01555,15.19772],[102.01614,15.19917],[102.01544,15.20104],[102.01417,15.20794],[102.01372,15.20899],[102.01799,15.20825],[102.02091,15.20921],[102.02189,15.21057],[102.021,15.21362],[102.0228,15.22208],[102.02119,15.22704],[102.02117,15.2284],[102.02044,15.22913],[102.02007,15.23178],[102.02018,15.23335],[102.01911,15.23586],[102.01934,15.24172],[102.02172,15.24709],[102.02508,15.25249],[102.0262,15.2537],[102.02746,15.25449],[102.03001,15.25506],[102.03583,15.25579],[102.03685,15.25741],[102.03847,15.25823],[102.03969,15.25781],[102.0407,15.25792],[102.04406,15.25954],[102.04743,15.25929],[102.04973,15.26026],[102.05144,15.26007],[102.05323,15.26044],[102.05562,15.25991],[102.063,15.25994],[102.06373,15.2593],[102.06596,15.25896],[102.06896,15.25944],[102.07186,15.25924]]]}},{"type":"Feature","properties":{"tcode":"300902","name":"ด่านจาก","amphoe":"โนนไทย","acode":"3009","area_km2":48.31,"lat":15.17722,"lon":102.1069,"station_code":null,"s_class":null,"bldg":7690,"basin":"LCK"},"geometry":{"type":"Polygon","coordinates":[[[102.16073,15.21214],[102.15438,15.21085],[102.1422,15.21049],[102.14047,15.20943],[102.13693,15.20619],[102.13592,15.20339],[102.13507,15.19634],[102.13514,15.19505],[102.13604,15.19365],[102.13682,15.19113],[102.13646,15.19067],[102.13544,15.19048],[102.13451,15.18979],[102.13554,15.18709],[102.1356,15.18661],[102.13523,15.18622],[102.13535,15.18532],[102.13478,15.18459],[102.13374,15.18424],[102.13396,15.18254],[102.1344,15.18213],[102.13424,15.18133],[102.13374,15.18059],[102.13223,15.17949],[102.13191,15.17848],[102.1323,15.17674],[102.13166,15.1763],[102.13241,15.17416],[102.13218,15.17011],[102.13352,15.16854],[102.13196,15.16742],[102.12999,15.15943],[102.12857,15.15634],[102.12837,15.15409],[102.12697,15.14935],[102.12411,15.14475],[102.12306,15.14206],[102.12117,15.14182],[102.121,15.14088],[102.12053,15.14048],[102.12099,15.13891],[102.12064,15.13778],[102.11866,15.13863],[102.11811,15.13768],[102.11671,15.13696],[102.1159,15.13761],[102.11559,15.13965],[102.11494,15.14011],[102.1139,15.14009],[102.1124,15.13873],[102.11221,15.13736],[102.11246,15.13654],[102.11162,15.13501],[102.10781,15.13635],[102.10724,15.13602],[102.10681,15.13483],[102.10644,15.13468],[102.10583,15.13472],[102.10444,15.13558],[102.10329,15.13482],[102.10161,15.1361],[102.10082,15.13613],[102.10036,15.13568],[102.1004,15.13513],[102.10155,15.13483],[102.10183,15.13431],[102.10315,15.13386],[102.10339,15.13352],[102.10115,15.13226],[102.10161,15.13144],[102.10153,15.13092],[102.10077,15.13083],[102.09997,15.13155],[102.09925,15.13174],[102.0991,15.13223],[102.09959,15.13253],[102.09949,15.13287],[102.09821,15.13363],[102.09743,15.13369],[102.09621,15.13231],[102.0964,15.13181],[102.09711,15.13186],[102.09744,15.13143],[102.09678,15.13096],[102.09656,15.13021],[102.0959,15.1304],[102.09519,15.13137],[102.09437,15.13074],[102.09395,15.13081],[102.09353,15.13167],[102.09294,15.1321],[102.09259,15.132],[102.09239,15.13142],[102.09304,15.12968],[102.09269,15.12909],[102.09199,15.12934],[102.09157,15.13043],[102.09075,15.13021],[102.0903,15.13097],[102.0892,15.13127],[102.08861,15.13272],[102.08622,15.13389],[102.08429,15.13695],[102.08373,15.13936],[102.08168,15.14113],[102.07683,15.1604],[102.07558,15.16279],[102.07396,15.16807],[102.0746,15.17049],[102.07722,15.17197],[102.08195,15.1776],[102.08238,15.17879],[102.07957,15.18073],[102.0757,15.18526],[102.07717,15.18555],[102.08205,15.18537],[102.08301,15.18585],[102.08381,15.18683],[102.08873,15.18776],[102.09254,15.18769],[102.09333,15.18801],[102.09356,15.18858],[102.09341,15.18961],[102.09763,15.19576],[102.1012,15.20191],[102.10597,15.21307],[102.10882,15.22069],[102.11311,15.21876],[102.12059,15.2162],[102.12191,15.21502],[102.12267,15.21592],[102.12358,15.21626],[102.1248,15.21811],[102.12625,15.21811],[102.12739,15.21963],[102.13069,15.22221],[102.13794,15.22492],[102.13868,15.2256],[102.14073,15.22545],[102.14215,15.22598],[102.14385,15.2256],[102.14628,15.2258],[102.14708,15.22531],[102.1527,15.22359],[102.15527,15.22206],[102.15603,15.22115],[102.16073,15.21214]]]}},{"type":"Feature","properties":{"tcode":"300903","name":"กำปัง","amphoe":"โนนไทย","acode":"3009","area_km2":52.09,"lat":15.12192,"lon":102.06311,"station_code":null,"s_class":null,"bldg":8792,"basin":"LCK"},"geometry":{"type":"Polygon","coordinates":[[[102.09257,15.12908],[102.09253,15.12735],[102.09202,15.12702],[102.09143,15.12553],[102.09017,15.12464],[102.09068,15.123],[102.09047,15.11904],[102.08537,15.10843],[102.08154,15.10128],[102.08059,15.10017],[102.07992,15.09834],[102.07983,15.09646],[102.0819,15.08725],[102.08257,15.0861],[102.08367,15.08522],[102.08782,15.08298],[102.08821,15.08195],[102.08796,15.08099],[102.08381,15.07779],[102.0812,15.07652],[102.0748,15.07405],[102.07227,15.07343],[102.06,15.0733],[102.05157,15.0739],[102.05089,15.07438],[102.05002,15.07387],[102.04471,15.0732],[102.04285,15.07728],[102.04064,15.07924],[102.03752,15.08312],[102.03326,15.0902],[102.03186,15.09352],[102.03127,15.09797],[102.03036,15.10124],[102.03073,15.10319],[102.03106,15.10352],[102.0305,15.10523],[102.03137,15.11303],[102.03081,15.11425],[102.03226,15.11585],[102.03394,15.11703],[102.03366,15.11867],[102.03441,15.11948],[102.03544,15.11989],[102.03701,15.13996],[102.03746,15.14295],[102.03892,15.14543],[102.0391,15.14625],[102.03922,15.14964],[102.04003,15.15227],[102.04012,15.15474],[102.04064,15.15708],[102.04024,15.15927],[102.04159,15.16042],[102.04405,15.16111],[102.04407,15.16522],[102.04495,15.16511],[102.04507,15.16555],[102.04662,15.16508],[102.04781,15.16526],[102.05294,15.16663],[102.05419,15.16561],[102.05553,15.1651],[102.05718,15.16505],[102.05985,15.16572],[102.06728,15.1695],[102.07072,15.16917],[102.0746,15.17049],[102.07396,15.16807],[102.07558,15.16279],[102.07683,15.1604],[102.08168,15.14113],[102.08373,15.13936],[102.08429,15.13695],[102.08622,15.13389],[102.08861,15.13272],[102.0892,15.13127],[102.0903,15.13097],[102.09075,15.13021],[102.09157,15.13043],[102.09191,15.12944],[102.09257,15.12908]]]}},{"type":"Feature","properties":{"tcode":"300904","name":"สำโรง","amphoe":"โนนไทย","acode":"3009","area_km2":47.72,"lat":15.12647,"lon":102.01779,"station_code":null,"s_class":null,"bldg":5831,"basin":"LCK"},"geometry":{"type":"Polygon","coordinates":[[[102.05294,15.16663],[102.04781,15.16526],[102.04662,15.16508],[102.04507,15.16555],[102.04495,15.16511],[102.04407,15.16522],[102.04405,15.16111],[102.04159,15.16042],[102.04026,15.15938],[102.04064,15.15708],[102.04012,15.15474],[102.04003,15.15227],[102.03922,15.14964],[102.0391,15.14625],[102.03892,15.14543],[102.03746,15.14295],[102.03701,15.13996],[102.03544,15.11989],[102.03441,15.11948],[102.03366,15.11867],[102.03394,15.11703],[102.03226,15.11585],[102.0308,15.1142],[102.03127,15.1137],[102.03137,15.11303],[102.0305,15.10523],[102.03106,15.10352],[102.03073,15.10319],[102.03036,15.10124],[102.03127,15.09797],[102.03186,15.09352],[102.03326,15.0902],[102.03752,15.08312],[102.04064,15.07924],[102.04285,15.07728],[102.04471,15.0732],[102.04296,15.0728],[102.03829,15.07327],[102.03564,15.07426],[102.03446,15.0723],[102.03412,15.07312],[102.03349,15.07307],[102.03254,15.07358],[102.03018,15.07336],[102.02519,15.07518],[102.02025,15.07303],[102.01963,15.07429],[102.01617,15.07749],[102.01572,15.08015],[102.0141,15.08115],[102.01161,15.08182],[102.01211,15.08516],[102.01176,15.08616],[102.01083,15.08588],[102.00879,15.08609],[102.00796,15.08568],[102.00502,15.08572],[102.00343,15.08531],[102.00092,15.08533],[101.99923,15.08485],[101.99831,15.08491],[101.99817,15.08541],[101.99501,15.08526],[101.99471,15.08678],[101.99427,15.08747],[101.99281,15.08861],[101.99106,15.08932],[101.98401,15.09029],[101.98067,15.09],[101.98966,15.10112],[101.99229,15.10628],[101.99417,15.10749],[101.99689,15.10797],[102.00006,15.10949],[102.00139,15.11134],[102.00066,15.11347],[102.001,15.11708],[102.00083,15.1186],[101.99907,15.12115],[101.99875,15.123],[101.99945,15.12556],[101.99932,15.12804],[101.99975,15.12909],[101.99872,15.1306],[101.99944,15.13537],[101.99886,15.13868],[101.99929,15.1402],[102.00004,15.14032],[102.00057,15.14106],[102.00037,15.14229],[102.00116,15.14353],[101.99936,15.14417],[101.9978,15.14361],[101.99701,15.1441],[101.99615,15.14537],[101.99606,15.14621],[101.99696,15.14654],[101.99772,15.14854],[101.99912,15.14861],[101.99893,15.14966],[101.99839,15.15108],[101.99801,15.15134],[101.99582,15.15176],[101.99497,15.15156],[101.99408,15.15222],[101.99282,15.15388],[101.99268,15.15499],[101.99213,15.15535],[101.99226,15.15587],[101.99276,15.1556],[101.99307,15.15579],[101.99324,15.15663],[101.99378,15.15708],[101.99334,15.15776],[101.99375,15.159],[101.99332,15.1591],[101.99229,15.15846],[101.99184,15.1585],[101.99198,15.15918],[101.99291,15.15974],[101.99269,15.15995],[101.99159,15.15975],[101.99103,15.15888],[101.99075,15.15889],[101.99064,15.15936],[101.99115,15.16014],[101.99124,15.16154],[101.99202,15.16163],[101.99192,15.16232],[101.99254,15.16303],[101.99079,15.16245],[101.99051,15.16459],[101.98814,15.16573],[101.98794,15.16624],[101.98799,15.16678],[101.98903,15.1667],[101.98951,15.16706],[101.98967,15.16774],[101.99028,15.16772],[101.99074,15.16836],[101.99064,15.16867],[101.98972,15.16905],[101.98955,15.16969],[101.98983,15.17019],[101.99134,15.17027],[101.99357,15.16959],[101.99732,15.16936],[101.99825,15.16905],[101.9992,15.16971],[101.99988,15.16948],[102.00055,15.1702],[102.00153,15.17035],[102.00162,15.17079],[102.00627,15.17141],[102.00661,15.17079],[102.00923,15.17041],[102.01001,15.16912],[102.01079,15.16614],[102.01191,15.16467],[102.01343,15.16342],[102.01648,15.16332],[102.01931,15.16794],[102.01944,15.17536],[102.02007,15.17685],[102.02148,15.17891],[102.02606,15.17962],[102.02897,15.17932],[102.03183,15.17956],[102.03485,15.1806],[102.0364,15.18045],[102.03806,15.17969],[102.04207,15.17582],[102.04586,15.17436],[102.04783,15.17246],[102.04976,15.1692],[102.05294,15.16663]]]}},{"type":"Feature","properties":{"tcode":"300905","name":"ค้างพลู","amphoe":"โนนไทย","acode":"3009","area_km2":82.67,"lat":15.15332,"lon":101.96628,"station_code":null,"s_class":null,"bldg":5392,"basin":"LCK"},"geometry":{"type":"Polygon","coordinates":[[[102.01351,15.20941],[102.01417,15.20794],[102.01544,15.20104],[102.01614,15.19917],[102.01555,15.19772],[102.01665,15.19627],[102.01813,15.19141],[102.01816,15.1903],[102.01866,15.18942],[102.0198,15.18382],[102.01965,15.18026],[102.02069,15.17993],[102.02148,15.17891],[102.02007,15.17685],[102.01944,15.17536],[102.01931,15.16794],[102.01726,15.16488],[102.01715,15.16409],[102.01637,15.16332],[102.01343,15.16342],[102.01191,15.16467],[102.01079,15.16614],[102.01001,15.16912],[102.00923,15.17041],[102.00661,15.17079],[102.00627,15.17141],[102.00162,15.17079],[102.00153,15.17035],[102.00055,15.1702],[101.99988,15.16948],[101.9992,15.16971],[101.99825,15.16905],[101.99732,15.16936],[101.99357,15.16959],[101.99134,15.17027],[101.98983,15.17019],[101.98955,15.16969],[101.98972,15.16905],[101.99064,15.16867],[101.99074,15.16836],[101.99028,15.16772],[101.98967,15.16774],[101.98951,15.16706],[101.98903,15.1667],[101.98795,15.16673],[101.98814,15.16573],[101.99056,15.16451],[101.99079,15.16245],[101.99254,15.16303],[101.99192,15.16232],[101.99202,15.16163],[101.99124,15.16154],[101.99115,15.16014],[101.99064,15.15922],[101.99075,15.15889],[101.99112,15.15891],[101.99159,15.15975],[101.99269,15.15995],[101.99291,15.15974],[101.99198,15.15918],[101.99184,15.1585],[101.99229,15.15846],[101.99332,15.1591],[101.99375,15.159],[101.99334,15.15776],[101.99378,15.15708],[101.99324,15.15663],[101.99295,15.15566],[101.99232,15.15588],[101.99212,15.15561],[101.99268,15.15499],[101.99282,15.15388],[101.99483,15.15162],[101.99582,15.15176],[101.99775,15.15141],[101.99849,15.15085],[101.99912,15.14861],[101.99772,15.14854],[101.99696,15.14654],[101.99602,15.14614],[101.99637,15.14492],[101.9978,15.14361],[101.99936,15.14417],[102.00116,15.14353],[102.00037,15.14229],[102.00057,15.14106],[102.00004,15.14032],[101.99929,15.1402],[101.99886,15.13868],[101.99944,15.13537],[101.99872,15.1306],[101.99975,15.12909],[101.99932,15.12804],[101.99945,15.12556],[101.99875,15.123],[101.99907,15.12115],[102.00083,15.1186],[102.001,15.11708],[102.00066,15.11347],[102.00139,15.11134],[102.00006,15.10949],[101.99689,15.10797],[101.99417,15.10749],[101.99229,15.10628],[101.98966,15.10112],[101.98067,15.09],[101.97407,15.08712],[101.97329,15.08709],[101.97286,15.08759],[101.97325,15.0893],[101.97216,15.09118],[101.97012,15.0921],[101.96471,15.09275],[101.96374,15.09396],[101.96034,15.09381],[101.95948,15.09405],[101.9583,15.09334],[101.95685,15.09315],[101.95561,15.09403],[101.95381,15.09422],[101.95149,15.09504],[101.95144,15.09577],[101.95099,15.09612],[101.95014,15.0987],[101.94629,15.10239],[101.9438,15.10321],[101.93666,15.10424],[101.93365,15.10499],[101.92992,15.10746],[101.92714,15.10851],[101.92482,15.10779],[101.92287,15.10678],[101.91892,15.10609],[101.91297,15.10561],[101.90714,15.106],[101.91512,15.11129],[101.91814,15.11388],[101.92559,15.12346],[101.92876,15.12816],[101.93517,15.13917],[101.93808,15.14342],[101.9391,15.14715],[101.93933,15.15321],[101.94034,15.1561],[101.9515,15.17454],[101.95395,15.17806],[101.95532,15.17785],[101.95768,15.17839],[101.95844,15.17886],[101.96016,15.17859],[101.95989,15.17984],[101.96097,15.18088],[101.96123,15.18077],[101.96094,15.1797],[101.9612,15.17926],[101.96198,15.17951],[101.96242,15.17867],[101.96319,15.17912],[101.9637,15.17904],[101.96377,15.18011],[101.96292,15.18248],[101.96296,15.18391],[101.96372,15.18421],[101.9643,15.18692],[101.96548,15.18771],[101.96656,15.18791],[101.96733,15.19022],[101.96909,15.19038],[101.96943,15.19319],[101.97035,15.19262],[101.97135,15.19266],[101.97182,15.19351],[101.97351,15.19407],[101.97539,15.19424],[101.97634,15.19386],[101.97984,15.2055],[101.97955,15.21154],[101.97968,15.21292],[101.98039,15.21352],[101.97852,15.21566],[101.98522,15.21591],[101.98926,15.21837],[101.99183,15.21947],[101.99283,15.21733],[101.9938,15.21699],[102.00048,15.21719],[102.00268,15.21687],[102.00614,15.2144],[102.007,15.21311],[102.01313,15.21455],[102.01367,15.21222],[102.01351,15.20941]]]}},{"type":"Feature","properties":{"tcode":"300906","name":"บ้านวัง","amphoe":"โนนไทย","acode":"3009","area_km2":38.71,"lat":15.1475,"lon":101.92074,"station_code":null,"s_class":null,"bldg":3304,"basin":"LCK"},"geometry":{"type":"Polygon","coordinates":[[[101.95395,15.17806],[101.9515,15.17454],[101.94034,15.1561],[101.93933,15.15321],[101.9391,15.14715],[101.93808,15.14342],[101.93517,15.13917],[101.92743,15.12616],[101.91814,15.11388],[101.91512,15.11129],[101.90714,15.106],[101.89857,15.10763],[101.89216,15.10997],[101.88884,15.1106],[101.88963,15.1109],[101.89055,15.11273],[101.89208,15.1143],[101.89336,15.11652],[101.89757,15.12881],[101.90031,15.13875],[101.90158,15.14472],[101.90244,15.14785],[101.90294,15.14859],[101.90291,15.14973],[101.902,15.15084],[101.90172,15.15614],[101.90113,15.15678],[101.89275,15.15976],[101.89186,15.15991],[101.88941,15.15955],[101.88635,15.16066],[101.88489,15.16062],[101.88411,15.16122],[101.88435,15.16367],[101.8832,15.16457],[101.88119,15.16777],[101.87904,15.16995],[101.88013,15.17277],[101.88013,15.1738],[101.87823,15.1829],[101.87779,15.1867],[101.88206,15.18744],[101.89233,15.18066],[101.8945,15.18088],[101.90004,15.18029],[101.90349,15.18042],[101.91518,15.18232],[101.9186,15.18337],[101.92108,15.18284],[101.92135,15.18378],[101.9209,15.1872],[101.92191,15.1879],[101.92193,15.18866],[101.92421,15.18907],[101.92606,15.18862],[101.92716,15.18774],[101.92838,15.18802],[101.92931,15.18752],[101.93069,15.18773],[101.93055,15.18704],[101.9293,15.18665],[101.92901,15.18601],[101.93006,15.18493],[101.92976,15.18433],[101.92984,15.18262],[101.93024,15.18227],[101.93117,15.18262],[101.9306,15.18169],[101.93129,15.18053],[101.93262,15.18082],[101.93333,15.18015],[101.93417,15.18156],[101.93416,15.18244],[101.93473,15.18228],[101.93471,15.18179],[101.93499,15.18171],[101.93577,15.18278],[101.93568,15.18117],[101.9365,15.1805],[101.93653,15.17958],[101.93751,15.1789],[101.93721,15.18094],[101.93804,15.17997],[101.93859,15.18018],[101.93811,15.18113],[101.93828,15.18201],[101.93928,15.18182],[101.93975,15.18334],[101.94091,15.18246],[101.94218,15.18379],[101.94268,15.18298],[101.94213,15.18227],[101.94157,15.1823],[101.94099,15.18113],[101.94175,15.17962],[101.94282,15.1797],[101.9432,15.17899],[101.94469,15.17873],[101.94546,15.17977],[101.94585,15.17907],[101.94713,15.17854],[101.94759,15.17897],[101.9489,15.17875],[101.94965,15.17976],[101.95144,15.18017],[101.95171,15.17997],[101.95143,15.17886],[101.95286,15.17871],[101.95395,15.17806]]]}},{"type":"Feature","properties":{"tcode":"300907","name":"บัลลังก์","amphoe":"โนนไทย","acode":"3009","area_km2":83.99,"lat":15.24139,"lon":101.93589,"station_code":null,"s_class":null,"bldg":5986,"basin":"LCK"},"geometry":{"type":"Polygon","coordinates":[[[101.97922,15.22095],[101.98006,15.21854],[101.97982,15.21793],[101.97849,15.21713],[101.97846,15.21586],[101.98039,15.21352],[101.97968,15.21292],[101.97955,15.21154],[101.97984,15.2055],[101.97634,15.19386],[101.97539,15.19424],[101.97351,15.19407],[101.97182,15.19351],[101.97135,15.19266],[101.97035,15.19262],[101.96943,15.19319],[101.96909,15.19038],[101.96741,15.19029],[101.96656,15.18791],[101.96548,15.18771],[101.9643,15.18692],[101.96372,15.18421],[101.96296,15.18391],[101.96291,15.18356],[101.96292,15.18248],[101.96377,15.18011],[101.9637,15.17904],[101.9631,15.17909],[101.96264,15.17867],[101.96198,15.17951],[101.9612,15.17926],[101.96094,15.1797],[101.96123,15.18077],[101.96097,15.18088],[101.95989,15.17984],[101.96016,15.17859],[101.95844,15.17886],[101.95768,15.17839],[101.95462,15.17777],[101.95286,15.17871],[101.95143,15.17886],[101.95171,15.17997],[101.95144,15.18017],[101.94965,15.17976],[101.94874,15.1787],[101.94759,15.17897],[101.94713,15.17854],[101.94585,15.17907],[101.94546,15.17977],[101.94484,15.17874],[101.94331,15.17895],[101.94295,15.17964],[101.94161,15.17972],[101.94102,15.18095],[101.94157,15.1823],[101.94213,15.18227],[101.94268,15.18298],[101.94218,15.18379],[101.94091,15.18246],[101.93975,15.18334],[101.93928,15.18182],[101.93828,15.18201],[101.93811,15.18113],[101.93859,15.18018],[101.93804,15.17997],[101.93721,15.18094],[101.93751,15.1789],[101.93653,15.17958],[101.9365,15.1805],[101.93568,15.18117],[101.93577,15.18278],[101.93499,15.18171],[101.93471,15.18179],[101.93473,15.18228],[101.93416,15.18244],[101.93417,15.18156],[101.93333,15.18015],[101.93262,15.18082],[101.93153,15.18045],[101.9306,15.18169],[101.93115,15.18267],[101.93024,15.18227],[101.92984,15.18262],[101.92976,15.18433],[101.93006,15.18493],[101.92901,15.18601],[101.9293,15.18665],[101.93055,15.18704],[101.93069,15.18773],[101.92931,15.18752],[101.92838,15.18802],[101.92716,15.18774],[101.92606,15.18862],[101.92421,15.18907],[101.92193,15.18866],[101.92191,15.1879],[101.9209,15.1872],[101.92135,15.18378],[101.92108,15.18284],[101.9186,15.18337],[101.91518,15.18232],[101.90349,15.18042],[101.90004,15.18029],[101.8945,15.18088],[101.89233,15.18066],[101.88206,15.18744],[101.87779,15.1867],[101.87714,15.18717],[101.87099,15.18934],[101.86834,15.18972],[101.8679,15.19012],[101.86856,15.1913],[101.87179,15.19394],[101.87363,15.20086],[101.87365,15.20314],[101.87412,15.2033],[101.87253,15.20645],[101.87259,15.20815],[101.87099,15.2169],[101.87096,15.22055],[101.87147,15.22397],[101.87336,15.22531],[101.87499,15.22447],[101.87507,15.22408],[101.87453,15.22313],[101.87503,15.22253],[101.87511,15.22173],[101.87609,15.2222],[101.87772,15.22171],[101.87821,15.22216],[101.87822,15.22313],[101.87892,15.22425],[101.87925,15.22427],[101.87933,15.22337],[101.87956,15.22329],[101.88064,15.22415],[101.8814,15.22417],[101.88159,15.22393],[101.88085,15.22373],[101.88035,15.22224],[101.88127,15.22193],[101.88147,15.22098],[101.88181,15.22086],[101.88244,15.2215],[101.88333,15.22121],[101.88278,15.2219],[101.88333,15.22291],[101.88418,15.22163],[101.88453,15.22172],[101.88451,15.22226],[101.88515,15.22202],[101.88545,15.22259],[101.88601,15.22222],[101.88638,15.22355],[101.88695,15.22388],[101.88724,15.22458],[101.88891,15.22413],[101.88912,15.22334],[101.88963,15.22305],[101.88975,15.22386],[101.89049,15.22467],[101.89046,15.22525],[101.88993,15.22595],[101.8902,15.2263],[101.89116,15.22628],[101.89135,15.22593],[101.89183,15.22608],[101.89318,15.22515],[101.89325,15.22436],[101.89361,15.22411],[101.89381,15.22426],[101.89362,15.2248],[101.89466,15.22578],[101.89423,15.2265],[101.89614,15.22736],[101.8963,15.22694],[101.89589,15.2267],[101.89608,15.22638],[101.89651,15.22643],[101.89626,15.22583],[101.89678,15.22581],[101.89779,15.22405],[101.89919,15.22447],[101.90007,15.2253],[101.90077,15.22501],[101.90147,15.22557],[101.90329,15.22582],[101.90341,15.22532],[101.90399,15.22511],[101.90431,15.22601],[101.90494,15.22527],[101.90567,15.22578],[101.90452,15.2282],[101.90392,15.23093],[101.90272,15.23381],[101.90214,15.23498],[101.90049,15.23693],[101.90332,15.24182],[101.90728,15.24698],[101.91015,15.25346],[101.91292,15.2567],[101.91351,15.2579],[101.91349,15.26084],[101.91645,15.26899],[101.91691,15.27416],[101.91916,15.28418],[101.91959,15.2878],[101.92014,15.28886],[101.92285,15.2914],[101.92368,15.29296],[101.92324,15.30288],[101.92351,15.30551],[101.92931,15.29435],[101.93241,15.29058],[101.94223,15.28642],[101.94682,15.28512],[101.95065,15.28017],[101.95026,15.27896],[101.94796,15.27518],[101.94339,15.26493],[101.94,15.26056],[101.93891,15.25543],[101.93899,15.25378],[101.93996,15.25159],[101.94164,15.24939],[101.94398,15.2473],[101.94568,15.24623],[101.94764,15.24549],[101.95383,15.24432],[101.95859,15.24434],[101.963,15.2438],[101.96656,15.24246],[101.96928,15.24102],[101.97077,15.23898],[101.97094,15.23521],[101.97149,15.23337],[101.97103,15.23323],[101.97173,15.23056],[101.97213,15.23062],[101.97232,15.22743],[101.97292,15.2249],[101.97273,15.22469],[101.97367,15.22184],[101.97465,15.22102],[101.97922,15.22095]]]}},{"type":"Feature","properties":{"tcode":"300908","name":"สายออ","amphoe":"โนนไทย","acode":"3009","area_km2":34.31,"lat":15.25634,"lon":102.02653,"station_code":null,"s_class":null,"bldg":4906,"basin":"LCK"},"geometry":{"type":"Polygon","coordinates":[[[102.07495,15.28508],[102.07499,15.28262],[102.07324,15.27404],[102.07192,15.26339],[102.07186,15.25924],[102.06896,15.25944],[102.06596,15.25896],[102.06373,15.2593],[102.063,15.25994],[102.05562,15.25991],[102.05323,15.26044],[102.05144,15.26007],[102.04973,15.26026],[102.04743,15.25929],[102.04406,15.25954],[102.041,15.25796],[102.03969,15.25781],[102.03834,15.25818],[102.03685,15.25741],[102.03583,15.25579],[102.02746,15.25449],[102.0262,15.2537],[102.02508,15.25249],[102.02046,15.24466],[102.01934,15.24172],[102.01909,15.23984],[102.01933,15.23864],[102.01911,15.23586],[102.02018,15.23335],[102.0204,15.22934],[102.02117,15.2284],[102.02119,15.22704],[102.0228,15.22208],[102.021,15.21362],[102.02189,15.21057],[102.02091,15.20921],[102.01799,15.20825],[102.01382,15.20896],[102.01351,15.20941],[102.01367,15.21222],[102.01313,15.21455],[102.007,15.21311],[102.00614,15.2144],[102.00268,15.21687],[102.00048,15.21719],[101.9938,15.21699],[101.99283,15.21733],[101.99183,15.21947],[101.98926,15.21837],[101.98522,15.21591],[101.97852,15.21566],[101.97849,15.21713],[101.97982,15.21793],[101.98006,15.21854],[101.97991,15.21953],[101.97808,15.22275],[101.9771,15.22365],[101.97603,15.22881],[101.97932,15.22999],[101.98368,15.23238],[101.98449,15.23314],[101.98488,15.23466],[101.98528,15.23495],[101.99106,15.23591],[101.9935,15.23564],[101.99642,15.23668],[101.99826,15.23774],[102.00351,15.23828],[102.00695,15.24175],[102.00967,15.24351],[102.01377,15.24685],[102.01556,15.25015],[102.01818,15.2527],[102.01712,15.25607],[102.01669,15.25648],[102.01666,15.25905],[102.01627,15.26074],[102.01505,15.26086],[102.01492,15.26362],[102.01347,15.26301],[102.01295,15.26121],[102.01005,15.26199],[102.00502,15.26183],[102.00475,15.2637],[102.00507,15.26434],[102.00509,15.26621],[102.00683,15.26686],[102.00719,15.2686],[102.00857,15.26908],[102.00929,15.27033],[102.00977,15.27063],[102.01063,15.27043],[102.01079,15.27174],[102.01056,15.2725],[102.01268,15.27277],[102.01499,15.27436],[102.01674,15.27409],[102.01709,15.27531],[102.01997,15.27448],[102.01999,15.27393],[102.02033,15.27385],[102.02212,15.27424],[102.02361,15.27528],[102.02551,15.27568],[102.02643,15.27725],[102.02687,15.27954],[102.02694,15.28258],[102.02627,15.2836],[102.02661,15.28609],[102.02591,15.28721],[102.02547,15.2893],[102.02635,15.2917],[102.02633,15.29236],[102.02573,15.29325],[102.02756,15.29393],[102.02934,15.29411],[102.03503,15.29403],[102.03669,15.29867],[102.03619,15.29985],[102.03634,15.30172],[102.03581,15.30437],[102.03796,15.30383],[102.04304,15.30063],[102.04954,15.29411],[102.05237,15.29081],[102.05833,15.28125],[102.06138,15.27762],[102.0621,15.2778],[102.06264,15.27859],[102.06656,15.28057],[102.06804,15.2819],[102.07166,15.28243],[102.07182,15.28405],[102.07495,15.28508]]]}},{"type":"Feature","properties":{"tcode":"300909","name":"ถนนโพธิ์","amphoe":"โนนไทย","acode":"3009","area_km2":33.19,"lat":15.27118,"lon":102.13859,"station_code":null,"s_class":null,"bldg":3031,"basin":"LCK"},"geometry":{"type":"Polygon","coordinates":[[[102.15885,15.27938],[102.1597,15.27572],[102.15898,15.26575],[102.16501,15.25364],[102.16672,15.2512],[102.16804,15.24991],[102.16851,15.24882],[102.17333,15.24635],[102.17456,15.24285],[102.17497,15.23549],[102.1756,15.23119],[102.16906,15.23391],[102.15086,15.24317],[102.14706,15.24405],[102.13905,15.244],[102.13541,15.2444],[102.13229,15.24636],[102.12983,15.24932],[102.12711,15.25587],[102.11875,15.26998],[102.11568,15.27445],[102.1117,15.28281],[102.11048,15.28739],[102.10958,15.28766],[102.10904,15.28861],[102.10925,15.28965],[102.10893,15.29098],[102.10648,15.29374],[102.10318,15.29968],[102.10287,15.30305],[102.10198,15.30565],[102.10117,15.30621],[102.10086,15.30807],[102.10348,15.30833],[102.10343,15.30872],[102.10375,15.30895],[102.11028,15.31123],[102.11062,15.31164],[102.11134,15.31117],[102.11146,15.31035],[102.11267,15.30919],[102.11495,15.30967],[102.11625,15.30896],[102.11651,15.30843],[102.11716,15.30815],[102.11766,15.3084],[102.11848,15.30785],[102.12027,15.30907],[102.12229,15.30801],[102.12343,15.30867],[102.12741,15.30881],[102.13244,15.30851],[102.13481,15.30803],[102.13956,15.30935],[102.14186,15.30785],[102.14244,15.30504],[102.14311,15.30345],[102.14448,15.29132],[102.14997,15.28906],[102.15454,15.28772],[102.15551,15.28706],[102.15754,15.28407],[102.15895,15.28023],[102.15885,15.27938]]]}},{"type":"Feature","properties":{"tcode":"300914","name":"มะค่า","amphoe":"โนนไทย","acode":"3009","area_km2":56.08,"lat":15.26003,"lon":102.09822,"station_code":null,"s_class":null,"bldg":4399,"basin":"LCK"},"geometry":{"type":"Polygon","coordinates":[[[102.1756,15.23119],[102.17596,15.22776],[102.17737,15.22532],[102.17815,15.22147],[102.17701,15.21793],[102.17517,15.21614],[102.17229,15.21411],[102.16796,15.21321],[102.16405,15.213],[102.16073,15.21214],[102.15603,15.22115],[102.15527,15.22206],[102.1527,15.22359],[102.14708,15.22531],[102.14628,15.2258],[102.14385,15.2256],[102.14215,15.22598],[102.14073,15.22545],[102.13868,15.2256],[102.13794,15.22492],[102.13069,15.22221],[102.12739,15.21963],[102.12625,15.21811],[102.1248,15.21811],[102.12358,15.21626],[102.12267,15.21592],[102.12191,15.21502],[102.12059,15.2162],[102.11311,15.21876],[102.10313,15.22293],[102.09966,15.22389],[102.09769,15.2237],[102.09662,15.22586],[102.09295,15.22629],[102.08887,15.22615],[102.08638,15.2276],[102.08597,15.22831],[102.08607,15.22942],[102.08515,15.2298],[102.08458,15.23053],[102.08326,15.23041],[102.07847,15.23093],[102.07655,15.23168],[102.07372,15.23381],[102.07229,15.23385],[102.07136,15.23547],[102.07116,15.23723],[102.07128,15.24198],[102.07205,15.25054],[102.07189,15.26306],[102.07324,15.27404],[102.07499,15.28262],[102.07495,15.28508],[102.07729,15.2972],[102.07901,15.29934],[102.08807,15.30556],[102.09105,15.30705],[102.09301,15.30753],[102.10086,15.30807],[102.10117,15.30621],[102.10198,15.30565],[102.10287,15.30305],[102.10318,15.29968],[102.10648,15.29374],[102.10893,15.29098],[102.10925,15.28965],[102.10904,15.28861],[102.10958,15.28766],[102.11048,15.28739],[102.1117,15.28281],[102.11568,15.27445],[102.11875,15.26998],[102.12711,15.25587],[102.12983,15.24932],[102.13229,15.24636],[102.13541,15.2444],[102.13905,15.244],[102.14706,15.24405],[102.15086,15.24317],[102.16906,15.23391],[102.1756,15.23119]]]}},{"type":"Feature","properties":{"tcode":"301001","name":"โนนสูง","amphoe":"โนนสูง","acode":"3010","area_km2":14.68,"lat":15.17806,"lon":102.25631,"station_code":null,"s_class":null,"bldg":6566,"basin":"LCK"},"geometry":{"type":"Polygon","coordinates":[[[102.27415,15.17503],[102.25361,15.15741],[102.24997,15.15488],[102.2417,15.16235],[102.24004,15.16785],[102.2398,15.17626],[102.2377,15.17746],[102.23631,15.17891],[102.23704,15.1792],[102.23715,15.17996],[102.23829,15.18104],[102.23868,15.18203],[102.23872,15.19084],[102.23909,15.19404],[102.24389,15.19735],[102.25324,15.2009],[102.28078,15.1884],[102.27415,15.17503]]]}},{"type":"Feature","properties":{"tcode":"301002","name":"ใหม่","amphoe":"โนนสูง","acode":"3010","area_km2":49.08,"lat":15.13203,"lon":102.24712,"station_code":null,"s_class":null,"bldg":9913,"basin":"MUN"},"geometry":{"type":"Polygon","coordinates":[[[102.29977,15.17877],[102.30325,15.1728],[102.30859,15.16686],[102.3113,15.16296],[102.31184,15.1617],[102.3119,15.15943],[102.30916,15.15452],[102.30827,15.14957],[102.30865,15.14373],[102.3093,15.14163],[102.30917,15.14084],[102.31089,15.13653],[102.30081,15.13631],[102.29023,15.13544],[102.2874,15.13237],[102.28595,15.1333],[102.28449,15.13321],[102.28351,15.13385],[102.28035,15.13363],[102.2791,15.13391],[102.27833,15.13348],[102.27763,15.13437],[102.27658,15.13467],[102.27553,15.13439],[102.27541,15.1339],[102.27248,15.13333],[102.27598,15.12778],[102.27388,15.12756],[102.2735,15.12729],[102.27331,15.12621],[102.27113,15.12687],[102.26892,15.12886],[102.26213,15.1176],[102.25692,15.1129],[102.25505,15.10655],[102.25497,15.105],[102.25378,15.1035],[102.25249,15.10087],[102.25131,15.09465],[102.23327,15.08413],[102.23343,15.0869],[102.23451,15.09022],[102.23456,15.09133],[102.23279,15.09481],[102.23294,15.09628],[102.23247,15.09923],[102.23098,15.10139],[102.23025,15.10393],[102.22886,15.10666],[102.22675,15.10903],[102.22614,15.10926],[102.22594,15.11003],[102.22473,15.11052],[102.22441,15.11193],[102.22266,15.11428],[102.22223,15.11612],[102.21326,15.11885],[102.21074,15.12001],[102.21525,15.12585],[102.22079,15.1308],[102.22121,15.13226],[102.22444,15.13711],[102.23395,15.14925],[102.23876,15.15655],[102.23942,15.15896],[102.2417,15.16235],[102.24997,15.15488],[102.25361,15.15741],[102.27415,15.17503],[102.274,15.17395],[102.27479,15.17363],[102.27473,15.17171],[102.27528,15.17089],[102.27689,15.171],[102.27804,15.17179],[102.27839,15.16954],[102.27881,15.16931],[102.27988,15.17008],[102.2821,15.17059],[102.28358,15.17054],[102.28394,15.16999],[102.28438,15.17045],[102.28532,15.1702],[102.28572,15.17045],[102.28543,15.17153],[102.28602,15.17157],[102.28649,15.17109],[102.28885,15.17204],[102.28894,15.17324],[102.29016,15.17382],[102.28962,15.17439],[102.28989,15.17547],[102.28904,15.17633],[102.29011,15.177],[102.29092,15.17674],[102.29192,15.17809],[102.29231,15.17804],[102.29234,15.17702],[102.29305,15.17707],[102.29315,15.17672],[102.29254,15.17608],[102.29178,15.17594],[102.2918,15.17555],[102.2922,15.17486],[102.29327,15.17477],[102.29319,15.17421],[102.29352,15.17407],[102.29476,15.17491],[102.29429,15.1756],[102.2943,15.17745],[102.29463,15.1781],[102.29552,15.17781],[102.2961,15.17671],[102.29567,15.17594],[102.29584,15.17559],[102.2962,15.17562],[102.29665,15.17638],[102.29766,15.17617],[102.29767,15.17696],[102.29677,15.17674],[102.29614,15.17761],[102.29664,15.17816],[102.29734,15.17794],[102.29767,15.17877],[102.2975,15.17905],[102.29641,15.17922],[102.29649,15.17983],[102.29732,15.18003],[102.29977,15.17877]]]}},{"type":"Feature","properties":{"tcode":"301003","name":"โตนด","amphoe":"โนนสูง","acode":"3010","area_km2":29.23,"lat":15.07688,"lon":102.26052,"station_code":null,"s_class":null,"bldg":6608,"basin":"MUN"},"geometry":{"type":"Polygon","coordinates":[[[102.31261,15.09073],[102.30977,15.09054],[102.30304,15.08939],[102.29936,15.08803],[102.29421,15.08678],[102.28724,15.08421],[102.28378,15.08044],[102.28071,15.07632],[102.28021,15.0741],[102.28067,15.07279],[102.28358,15.06868],[102.28621,15.0668],[102.28705,15.06457],[102.28609,15.06362],[102.27504,15.0588],[102.26784,15.05214],[102.26691,15.04122],[102.2672,15.04022],[102.26781,15.03982],[102.26965,15.03728],[102.26811,15.0364],[102.26758,15.0371],[102.26722,15.03677],[102.26464,15.03631],[102.26351,15.03682],[102.26286,15.03674],[102.26228,15.03728],[102.26069,15.03715],[102.26032,15.03659],[102.26001,15.03683],[102.26012,15.03718],[102.25959,15.03733],[102.25945,15.03649],[102.25912,15.03646],[102.25909,15.03706],[102.25776,15.03716],[102.25726,15.0387],[102.25652,15.03893],[102.25637,15.04125],[102.25564,15.04132],[102.25291,15.04267],[102.25233,15.04256],[102.25011,15.04326],[102.25119,15.04468],[102.25157,15.04936],[102.25124,15.05079],[102.25187,15.05658],[102.25119,15.05723],[102.25079,15.05843],[102.24884,15.05863],[102.24858,15.06203],[102.24684,15.06711],[102.24595,15.0724],[102.2442,15.07443],[102.2433,15.0747],[102.24112,15.0762],[102.24004,15.0765],[102.23992,15.07844],[102.23682,15.07861],[102.23606,15.0799],[102.23572,15.08226],[102.23505,15.08253],[102.23352,15.08248],[102.23324,15.08326],[102.23327,15.08413],[102.25592,15.09733],[102.25749,15.09796],[102.25946,15.09815],[102.27822,15.09718],[102.28053,15.09775],[102.29318,15.1081],[102.29894,15.11709],[102.30942,15.10417],[102.31057,15.10225],[102.31261,15.09073]]]}},{"type":"Feature","properties":{"tcode":"301004","name":"บิง","amphoe":"โนนสูง","acode":"3010","area_km2":38.97,"lat":15.1195,"lon":102.33054,"station_code":null,"s_class":null,"bldg":5232,"basin":"MUN"},"geometry":{"type":"Polygon","coordinates":[[[102.3447,15.08787],[102.3446,15.0921],[102.34375,15.09448],[102.34305,15.09475],[102.33845,15.09462],[102.33645,15.09415],[102.32318,15.09319],[102.31261,15.09073],[102.31059,15.10215],[102.30991,15.10345],[102.29911,15.11683],[102.29786,15.11898],[102.2961,15.12367],[102.29278,15.12448],[102.29125,15.12454],[102.29041,15.12512],[102.28974,15.12605],[102.28738,15.13238],[102.29023,15.13544],[102.30081,15.13631],[102.31089,15.13653],[102.32159,15.13593],[102.32326,15.13547],[102.32421,15.13582],[102.32487,15.1365],[102.32526,15.1371],[102.32502,15.13765],[102.32531,15.13808],[102.33091,15.14065],[102.3322,15.14193],[102.33243,15.14272],[102.33365,15.14355],[102.33511,15.14381],[102.33576,15.14304],[102.33766,15.14361],[102.33957,15.1448],[102.3475,15.14769],[102.35029,15.14916],[102.35209,15.14971],[102.35308,15.15047],[102.35538,15.15083],[102.35621,15.15134],[102.35821,15.15154],[102.35923,15.15071],[102.35982,15.15083],[102.36122,15.14942],[102.36185,15.15012],[102.36398,15.15128],[102.36433,15.15163],[102.36416,15.15227],[102.36456,15.15252],[102.37022,15.15382],[102.37133,15.15355],[102.37172,15.15289],[102.37166,15.15221],[102.37025,15.15137],[102.36991,15.15037],[102.37038,15.15007],[102.37285,15.15004],[102.3728,15.14895],[102.37147,15.14827],[102.37125,15.14759],[102.37251,15.14668],[102.37382,15.14651],[102.37346,15.14527],[102.37443,15.14393],[102.37257,15.14078],[102.37314,15.14039],[102.37442,15.14148],[102.37624,15.14164],[102.37605,15.14114],[102.37444,15.1404],[102.37414,15.13953],[102.37476,15.13873],[102.37698,15.1378],[102.37699,15.13727],[102.3764,15.1367],[102.37499,15.13708],[102.37483,15.1367],[102.37526,15.13629],[102.3755,15.13522],[102.3761,15.13592],[102.37672,15.13577],[102.3761,15.13381],[102.3762,15.13331],[102.37679,15.13335],[102.37735,15.13429],[102.37896,15.13416],[102.37796,15.13271],[102.37871,15.13126],[102.378,15.13084],[102.37608,15.13097],[102.37382,15.13023],[102.37336,15.12981],[102.37341,15.12913],[102.37422,15.12839],[102.37474,15.12599],[102.37454,15.12534],[102.37379,15.12552],[102.37386,15.12653],[102.37358,15.12709],[102.37139,15.12853],[102.37093,15.12835],[102.37086,15.12753],[102.37234,15.12669],[102.3728,15.12557],[102.3726,15.12501],[102.3713,15.12401],[102.36991,15.12415],[102.36817,15.12632],[102.36692,15.12622],[102.36661,15.12498],[102.36688,15.12383],[102.36742,15.1235],[102.36873,15.12381],[102.36886,15.12319],[102.36828,15.12288],[102.3672,15.12309],[102.36643,15.12268],[102.36641,15.12208],[102.36712,15.12061],[102.36701,15.12011],[102.36525,15.12036],[102.36384,15.11982],[102.36324,15.11916],[102.36341,15.11881],[102.36477,15.11868],[102.3657,15.11824],[102.36639,15.11729],[102.36598,15.11659],[102.36433,15.11681],[102.36153,15.11549],[102.36101,15.11567],[102.36049,15.11692],[102.35878,15.11624],[102.3558,15.11639],[102.35538,15.11608],[102.35538,15.11561],[102.35648,15.11491],[102.35674,15.11432],[102.35657,15.11329],[102.35592,15.11278],[102.35533,15.11324],[102.35473,15.11528],[102.35408,15.11588],[102.35329,15.11583],[102.3527,15.11499],[102.35271,15.11362],[102.35217,15.11283],[102.35337,15.11164],[102.35342,15.1109],[102.35289,15.11055],[102.35114,15.11066],[102.35094,15.11028],[102.35147,15.10929],[102.35025,15.10846],[102.34978,15.10776],[102.34988,15.10713],[102.3504,15.10692],[102.3515,15.10759],[102.35202,15.10756],[102.35217,15.10722],[102.35168,15.10617],[102.35346,15.10557],[102.35356,15.10377],[102.35405,15.10356],[102.35513,15.10387],[102.35505,15.1035],[102.35372,15.10291],[102.35355,15.10198],[102.35593,15.1008],[102.35747,15.09926],[102.35726,15.09893],[102.35593,15.09898],[102.35577,15.0975],[102.35673,15.09758],[102.35818,15.09859],[102.35909,15.09814],[102.35898,15.09766],[102.35734,15.09634],[102.3572,15.09582],[102.35743,15.09548],[102.35789,15.0955],[102.35872,15.09636],[102.35968,15.09595],[102.35959,15.09548],[102.35847,15.09512],[102.35817,15.09331],[102.35985,15.09382],[102.36073,15.09358],[102.36063,15.09299],[102.35897,15.09276],[102.3582,15.09198],[102.3585,15.09137],[102.36013,15.09084],[102.35965,15.08882],[102.35982,15.0882],[102.36069,15.08774],[102.36225,15.08867],[102.36321,15.08861],[102.36395,15.0877],[102.36408,15.08654],[102.36298,15.08535],[102.36243,15.08548],[102.36246,15.08665],[102.36187,15.08705],[102.36146,15.08688],[102.36135,15.08566],[102.36092,15.08525],[102.36046,15.0853],[102.35977,15.08614],[102.35807,15.0861],[102.35628,15.0878],[102.35509,15.08849],[102.35422,15.09013],[102.35327,15.09069],[102.35275,15.09003],[102.35395,15.08846],[102.35396,15.08785],[102.35362,15.0875],[102.3525,15.0877],[102.35164,15.08734],[102.351,15.08746],[102.35038,15.08852],[102.35072,15.08959],[102.34934,15.09094],[102.34851,15.0894],[102.34667,15.09018],[102.34695,15.08822],[102.34566,15.08844],[102.3447,15.08787]]]}},{"type":"Feature","properties":{"tcode":"301005","name":"ดอนชมพู","amphoe":"โนนสูง","acode":"3010","area_km2":40.4,"lat":15.16893,"lon":102.3381,"station_code":null,"s_class":null,"bldg":6489,"basin":"LCK"},"geometry":{"type":"Polygon","coordinates":[[[102.37054,15.19948],[102.37266,15.19411],[102.37305,15.1938],[102.37359,15.19389],[102.37811,15.18959],[102.37811,15.18921],[102.37632,15.18935],[102.37535,15.18749],[102.37629,15.18747],[102.37775,15.18824],[102.37853,15.18727],[102.37748,15.18689],[102.37757,15.18583],[102.37666,15.18528],[102.37614,15.1844],[102.37506,15.18405],[102.37541,15.18249],[102.37685,15.1828],[102.37752,15.18242],[102.37771,15.18193],[102.37739,15.18151],[102.37508,15.18124],[102.37511,15.18078],[102.37609,15.17985],[102.37536,15.17823],[102.3735,15.17838],[102.37282,15.17799],[102.37245,15.1769],[102.37331,15.17593],[102.37342,15.17507],[102.37201,15.17518],[102.37101,15.17686],[102.36969,15.17682],[102.36908,15.17547],[102.36919,15.17407],[102.36827,15.17364],[102.36851,15.17309],[102.36977,15.17242],[102.36966,15.17172],[102.36867,15.17082],[102.36891,15.16953],[102.37012,15.16838],[102.37121,15.16667],[102.37341,15.16586],[102.37414,15.16449],[102.37397,15.16402],[102.37349,15.164],[102.37258,15.16529],[102.37218,15.1654],[102.36959,15.16356],[102.36974,15.16295],[102.37027,15.16268],[102.37188,15.16362],[102.37244,15.16341],[102.37216,15.16087],[102.37118,15.16014],[102.37031,15.16015],[102.37042,15.16138],[102.36988,15.16214],[102.36914,15.16245],[102.36853,15.16212],[102.36887,15.15881],[102.36996,15.15797],[102.37025,15.15726],[102.37019,15.15591],[102.36937,15.15444],[102.36964,15.15398],[102.37022,15.15382],[102.36448,15.15249],[102.36416,15.15227],[102.36433,15.15163],[102.36398,15.15128],[102.36185,15.15012],[102.36122,15.14942],[102.35982,15.15083],[102.35923,15.15071],[102.35821,15.15154],[102.35621,15.15134],[102.35538,15.15083],[102.35308,15.15047],[102.35209,15.14971],[102.35029,15.14916],[102.3475,15.14769],[102.33957,15.1448],[102.33766,15.14361],[102.33576,15.14304],[102.33511,15.14381],[102.33365,15.14355],[102.33243,15.14272],[102.3322,15.14193],[102.33091,15.14065],[102.32531,15.13808],[102.32502,15.13765],[102.32526,15.1371],[102.32487,15.1365],[102.32421,15.13582],[102.32326,15.13547],[102.32159,15.13593],[102.31089,15.13653],[102.30917,15.14084],[102.3093,15.14163],[102.30865,15.14373],[102.30827,15.14957],[102.30916,15.15452],[102.3119,15.15943],[102.31184,15.1617],[102.3113,15.16296],[102.30859,15.16686],[102.30325,15.1728],[102.29977,15.17877],[102.30035,15.1788],[102.30128,15.17956],[102.30166,15.18061],[102.30346,15.17898],[102.30362,15.17819],[102.30415,15.17843],[102.30476,15.1798],[102.3055,15.17922],[102.30609,15.17936],[102.30622,15.17967],[102.30566,15.18004],[102.30563,15.18053],[102.30625,15.18074],[102.30638,15.18136],[102.30782,15.18332],[102.30796,15.184],[102.30725,15.18408],[102.30769,15.18501],[102.30874,15.18569],[102.30937,15.18564],[102.30948,15.18482],[102.31042,15.18397],[102.31077,15.18399],[102.31081,15.18489],[102.31021,15.18668],[102.3105,15.18755],[102.31007,15.18889],[102.31033,15.19033],[102.31003,15.1904],[102.30892,15.1895],[102.3085,15.19001],[102.3091,15.1904],[102.30971,15.19159],[102.31088,15.1913],[102.31131,15.19229],[102.31074,15.19362],[102.31088,15.19406],[102.31129,15.19415],[102.31202,15.19346],[102.31328,15.19417],[102.31393,15.1937],[102.31495,15.19372],[102.31578,15.1944],[102.31583,15.19573],[102.31631,15.19582],[102.31712,15.19523],[102.31765,15.19619],[102.3182,15.19641],[102.31925,15.1962],[102.32011,15.19547],[102.32091,15.19529],[102.32179,15.1937],[102.32316,15.19326],[102.32335,15.19419],[102.32452,15.19409],[102.32469,15.19465],[102.32679,15.19472],[102.3283,15.19602],[102.33135,15.19606],[102.33121,15.19765],[102.33144,15.19794],[102.3319,15.19789],[102.33234,15.19735],[102.33305,15.19747],[102.33328,15.1969],[102.33302,15.19616],[102.33384,15.19559],[102.33437,15.1957],[102.33485,15.19609],[102.33448,15.1966],[102.33502,15.19726],[102.33484,15.19809],[102.33507,15.1984],[102.33693,15.19614],[102.33733,15.19814],[102.33801,15.19823],[102.33854,15.19698],[102.33778,15.19646],[102.33872,15.1955],[102.33925,15.19546],[102.33985,15.19756],[102.3411,15.19775],[102.34122,15.19823],[102.34071,15.19856],[102.34075,15.19887],[102.342,15.19845],[102.34235,15.19861],[102.34225,15.19989],[102.34076,15.20045],[102.34069,15.201],[102.34156,15.20115],[102.34184,15.20184],[102.3431,15.20088],[102.34341,15.20154],[102.34443,15.20242],[102.34476,15.20238],[102.34556,15.20118],[102.34538,15.20095],[102.34429,15.20107],[102.34443,15.20004],[102.34559,15.19968],[102.34691,15.2002],[102.34761,15.19979],[102.34817,15.20057],[102.34877,15.20067],[102.34972,15.19986],[102.35278,15.19913],[102.35513,15.19762],[102.35654,15.1973],[102.35758,15.19738],[102.35883,15.19843],[102.36103,15.19927],[102.36145,15.19976],[102.36136,15.20046],[102.36307,15.20123],[102.36413,15.19747],[102.37054,15.19948]]]}},{"type":"Feature","properties":{"tcode":"301006","name":"ธารปราสาท","amphoe":"โนนสูง","acode":"3010","area_km2":41.92,"lat":15.25547,"lon":102.39985,"station_code":null,"s_class":null,"bldg":7775,"basin":null},"geometry":{"type":"Polygon","coordinates":[[[102.36676,15.21247],[102.36402,15.21501],[102.36073,15.21888],[102.35578,15.22243],[102.35467,15.22354],[102.35118,15.22853],[102.34938,15.23177],[102.34815,15.23467],[102.34756,15.23707],[102.3483,15.23922],[102.3505,15.24312],[102.35198,15.24478],[102.35348,15.24563],[102.35376,15.24751],[102.35505,15.24735],[102.35694,15.24859],[102.35804,15.24867],[102.36055,15.24709],[102.36314,15.24692],[102.36512,15.24594],[102.36468,15.24877],[102.36597,15.25423],[102.36594,15.25702],[102.36563,15.25795],[102.36463,15.2586],[102.3642,15.25938],[102.36355,15.26401],[102.36221,15.26576],[102.35824,15.27398],[102.35716,15.27871],[102.36543,15.27722],[102.368,15.27728],[102.37315,15.27834],[102.37754,15.27982],[102.38336,15.28127],[102.38482,15.28214],[102.38556,15.28195],[102.38656,15.28079],[102.38737,15.28089],[102.38783,15.28115],[102.38794,15.28178],[102.38759,15.28503],[102.38707,15.28603],[102.38725,15.28652],[102.38784,15.28665],[102.39051,15.2861],[102.39328,15.28714],[102.39328,15.28814],[102.39195,15.28865],[102.39144,15.28927],[102.39174,15.29089],[102.39446,15.2937],[102.39657,15.29369],[102.39694,15.294],[102.3977,15.29554],[102.39686,15.2967],[102.39702,15.29724],[102.39822,15.29721],[102.39932,15.29787],[102.40019,15.29781],[102.40048,15.29747],[102.40012,15.29674],[102.4003,15.29634],[102.40233,15.29558],[102.4037,15.29419],[102.40467,15.29377],[102.40858,15.27632],[102.4094,15.27506],[102.40945,15.27325],[102.40986,15.27301],[102.4101,15.27158],[102.41156,15.27122],[102.41204,15.272],[102.41299,15.27226],[102.41348,15.27275],[102.41354,15.27343],[102.41488,15.27296],[102.41561,15.27412],[102.41729,15.27395],[102.41733,15.27344],[102.41686,15.27287],[102.41705,15.27259],[102.41841,15.27301],[102.41904,15.27196],[102.4241,15.2672],[102.43138,15.25903],[102.43398,15.25499],[102.4355,15.24996],[102.43004,15.2476],[102.42991,15.24721],[102.42624,15.24663],[102.42628,15.24625],[102.42557,15.24584],[102.42291,15.24549],[102.41726,15.24362],[102.4169,15.24398],[102.41153,15.24211],[102.40533,15.24143],[102.40528,15.24041],[102.40144,15.23789],[102.38838,15.23146],[102.38517,15.23034],[102.38459,15.22962],[102.38305,15.22881],[102.38079,15.22657],[102.37917,15.22566],[102.37942,15.22434],[102.37676,15.22295],[102.37893,15.21894],[102.37644,15.21795],[102.37293,15.21531],[102.36932,15.21401],[102.36676,15.21247]]]}},{"type":"Feature","properties":{"tcode":"301007","name":"หลุมข้าว","amphoe":"โนนสูง","acode":"3010","area_km2":82.97,"lat":15.22554,"lon":102.30428,"station_code":null,"s_class":null,"bldg":7713,"basin":"LCK"},"geometry":{"type":"Polygon","coordinates":[[[102.35716,15.27871],[102.35824,15.27398],[102.36221,15.26576],[102.36355,15.26401],[102.3642,15.25938],[102.36463,15.2586],[102.36563,15.25795],[102.36594,15.25702],[102.36597,15.25423],[102.36468,15.24877],[102.36512,15.24594],[102.36314,15.24692],[102.36055,15.24709],[102.35804,15.24867],[102.35694,15.24859],[102.35505,15.24735],[102.35376,15.24751],[102.35348,15.24563],[102.35198,15.24478],[102.3505,15.24312],[102.3483,15.23922],[102.34756,15.23707],[102.34815,15.23467],[102.34938,15.23177],[102.35118,15.22853],[102.35467,15.22354],[102.35578,15.22243],[102.36073,15.21888],[102.36402,15.21501],[102.36676,15.21247],[102.36848,15.20759],[102.3694,15.20411],[102.36907,15.20397],[102.37054,15.19948],[102.36413,15.19747],[102.36307,15.20123],[102.36136,15.20046],[102.36145,15.19976],[102.36103,15.19927],[102.35883,15.19843],[102.35758,15.19738],[102.35654,15.1973],[102.35513,15.19762],[102.35278,15.19913],[102.34972,15.19986],[102.34877,15.20067],[102.34817,15.20057],[102.34761,15.19979],[102.34691,15.2002],[102.34559,15.19968],[102.34443,15.20004],[102.34429,15.20107],[102.34538,15.20095],[102.34556,15.20118],[102.34476,15.20238],[102.34443,15.20242],[102.34341,15.20154],[102.3431,15.20088],[102.34184,15.20184],[102.34156,15.20115],[102.34069,15.201],[102.34076,15.20045],[102.34225,15.19989],[102.34235,15.19861],[102.342,15.19845],[102.34075,15.19887],[102.34071,15.19856],[102.34122,15.19823],[102.3411,15.19775],[102.33985,15.19756],[102.33925,15.19546],[102.33872,15.1955],[102.33778,15.19646],[102.33854,15.19698],[102.33801,15.19823],[102.33733,15.19814],[102.33693,15.19614],[102.3351,15.1984],[102.33484,15.19814],[102.33502,15.19726],[102.33448,15.1966],[102.33485,15.19609],[102.33437,15.1957],[102.33384,15.19559],[102.33302,15.19616],[102.33328,15.1969],[102.33305,15.19747],[102.33234,15.19735],[102.3319,15.19789],[102.33144,15.19794],[102.33121,15.19765],[102.33135,15.19606],[102.3283,15.19602],[102.32679,15.19472],[102.32469,15.19465],[102.32452,15.19409],[102.32335,15.19419],[102.3231,15.19325],[102.322,15.19353],[102.32106,15.19515],[102.31925,15.1962],[102.31792,15.19637],[102.317,15.1952],[102.31601,15.19583],[102.31573,15.19558],[102.31578,15.1944],[102.31495,15.19372],[102.31393,15.1937],[102.31328,15.19417],[102.31202,15.19346],[102.31129,15.19415],[102.31084,15.19401],[102.31131,15.19229],[102.31088,15.1913],[102.30971,15.19159],[102.3091,15.1904],[102.3085,15.19001],[102.30892,15.1895],[102.31003,15.1904],[102.31033,15.19033],[102.31007,15.18889],[102.3105,15.18755],[102.31021,15.18668],[102.31081,15.18406],[102.31046,15.18395],[102.30952,15.18477],[102.30927,15.1857],[102.30782,15.18519],[102.30725,15.18408],[102.30796,15.184],[102.30782,15.18332],[102.30638,15.18136],[102.30625,15.18074],[102.30561,15.1805],[102.30566,15.18004],[102.30622,15.17967],[102.30609,15.17936],[102.3055,15.17922],[102.30476,15.1798],[102.30415,15.17843],[102.30367,15.17818],[102.30346,15.17898],[102.30184,15.1806],[102.30143,15.18043],[102.30128,15.17956],[102.30011,15.17873],[102.29732,15.18003],[102.29663,15.17991],[102.29636,15.17927],[102.29767,15.17877],[102.29734,15.17794],[102.29664,15.17816],[102.29614,15.17761],[102.29677,15.17674],[102.29767,15.17696],[102.29766,15.17617],[102.29665,15.17638],[102.2962,15.17562],[102.29584,15.17559],[102.29567,15.17594],[102.2961,15.17671],[102.29552,15.17781],[102.29463,15.1781],[102.2943,15.17745],[102.29429,15.1756],[102.29476,15.17491],[102.29352,15.17407],[102.29319,15.17421],[102.29327,15.17477],[102.2922,15.17486],[102.2918,15.17555],[102.29178,15.17594],[102.29254,15.17608],[102.29315,15.17672],[102.29305,15.17707],[102.29234,15.17702],[102.29231,15.17804],[102.29192,15.17809],[102.29092,15.17674],[102.29011,15.177],[102.28903,15.1763],[102.28989,15.17547],[102.28962,15.17439],[102.29016,15.17382],[102.28894,15.17324],[102.28889,15.17208],[102.28649,15.17109],[102.28602,15.17157],[102.28543,15.17153],[102.2858,15.17068],[102.28539,15.17021],[102.28441,15.17046],[102.28387,15.16998],[102.28358,15.17054],[102.2821,15.17059],[102.27988,15.17008],[102.27881,15.16931],[102.27839,15.16954],[102.27804,15.17179],[102.27689,15.171],[102.27523,15.17092],[102.27473,15.17171],[102.27479,15.17363],[102.274,15.17395],[102.27415,15.17503],[102.28078,15.1884],[102.25324,15.2009],[102.24472,15.21665],[102.24527,15.21715],[102.24696,15.21676],[102.24693,15.21586],[102.24787,15.21478],[102.24789,15.21398],[102.24858,15.21316],[102.24867,15.21242],[102.24956,15.21084],[102.25095,15.2124],[102.25246,15.21288],[102.25267,15.21619],[102.2541,15.22241],[102.25969,15.23658],[102.25979,15.23756],[102.25929,15.24037],[102.26601,15.24155],[102.26995,15.24128],[102.27238,15.24219],[102.28084,15.24291],[102.28557,15.24364],[102.2877,15.2444],[102.29133,15.245],[102.29303,15.24381],[102.29454,15.24357],[102.29558,15.24291],[102.29802,15.24248],[102.30355,15.24412],[102.30777,15.24257],[102.31027,15.24271],[102.31201,15.24328],[102.31241,15.24253],[102.31302,15.24292],[102.31477,15.24259],[102.31812,15.2414],[102.31637,15.24519],[102.31441,15.25124],[102.31465,15.25885],[102.31434,15.26098],[102.3151,15.26423],[102.31575,15.26558],[102.32959,15.27166],[102.33378,15.27393],[102.34432,15.28088],[102.34656,15.27949],[102.34896,15.27877],[102.35716,15.27871]]]}},{"type":"Feature","properties":{"tcode":"301008","name":"มะค่า","amphoe":"โนนสูง","acode":"3010","area_km2":78.81,"lat":15.31305,"lon":102.31771,"station_code":null,"s_class":null,"bldg":7524,"basin":null},"geometry":{"type":"Polygon","coordinates":[[[102.34432,15.28088],[102.33378,15.27393],[102.32959,15.27166],[102.32028,15.26744],[102.31621,15.26591],[102.31562,15.26543],[102.31434,15.26098],[102.31465,15.25885],[102.31441,15.25124],[102.31637,15.24519],[102.31812,15.2414],[102.31477,15.24259],[102.31302,15.24292],[102.31241,15.24253],[102.31201,15.24328],[102.31027,15.24271],[102.30777,15.24257],[102.30371,15.24411],[102.29802,15.24248],[102.29558,15.24291],[102.29454,15.24357],[102.29303,15.24381],[102.29133,15.245],[102.2877,15.2444],[102.28645,15.24741],[102.28417,15.25093],[102.28272,15.25454],[102.28072,15.2612],[102.2797,15.26747],[102.27953,15.27651],[102.27999,15.27743],[102.28026,15.28063],[102.28197,15.28841],[102.28406,15.29454],[102.28604,15.29759],[102.28816,15.29982],[102.29407,15.30394],[102.29451,15.30461],[102.29483,15.30565],[102.29451,15.31328],[102.29369,15.3172],[102.29779,15.31606],[102.29875,15.31649],[102.29988,15.32515],[102.30074,15.32809],[102.31065,15.34363],[102.31188,15.3515],[102.31136,15.35734],[102.31118,15.3652],[102.31168,15.37442],[102.31176,15.38413],[102.316,15.38446],[102.32363,15.38427],[102.32729,15.38387],[102.32813,15.38333],[102.32926,15.37877],[102.33005,15.37834],[102.34075,15.3774],[102.35236,15.37449],[102.35841,15.37445],[102.36113,15.37307],[102.36217,15.37315],[102.36366,15.3713],[102.36975,15.36915],[102.373,15.36443],[102.37382,15.36273],[102.37539,15.36334],[102.37513,15.36238],[102.3757,15.36123],[102.37421,15.35895],[102.37162,15.35646],[102.37078,15.35432],[102.36715,15.35096],[102.3564,15.33862],[102.34218,15.32332],[102.34084,15.32165],[102.34009,15.32003],[102.33994,15.31822],[102.34166,15.30942],[102.34124,15.30011],[102.34011,15.29849],[102.34027,15.29638],[102.33993,15.29224],[102.34161,15.2896],[102.34226,15.28524],[102.34217,15.28417],[102.3427,15.28263],[102.34326,15.28233],[102.34432,15.28088]]]}},{"type":"Feature","properties":{"tcode":"301009","name":"พลสงคราม","amphoe":"โนนสูง","acode":"3010","area_km2":68.26,"lat":15.31276,"lon":102.2704,"station_code":null,"s_class":null,"bldg":6497,"basin":null},"geometry":{"type":"Polygon","coordinates":[[[102.2877,15.2444],[102.28557,15.24364],[102.28084,15.24291],[102.27238,15.24219],[102.26995,15.24128],[102.26601,15.24155],[102.25929,15.24037],[102.25338,15.24497],[102.25278,15.24591],[102.25234,15.24595],[102.25175,15.24488],[102.2511,15.24562],[102.24981,15.24551],[102.24934,15.24616],[102.24968,15.2473],[102.24899,15.24769],[102.24866,15.24917],[102.24746,15.24942],[102.2471,15.24886],[102.24656,15.24889],[102.24444,15.25039],[102.24425,15.25167],[102.24288,15.25197],[102.24156,15.25182],[102.24114,15.25214],[102.24005,15.25461],[102.23834,15.25513],[102.23767,15.25812],[102.23648,15.25879],[102.23646,15.25965],[102.23593,15.25981],[102.23614,15.26128],[102.23575,15.26163],[102.23591,15.26249],[102.23554,15.26316],[102.23607,15.26345],[102.23581,15.26445],[102.23636,15.26584],[102.23613,15.26686],[102.23637,15.26757],[102.23573,15.26795],[102.23597,15.2685],[102.23532,15.26891],[102.23542,15.2712],[102.23578,15.27166],[102.23558,15.27267],[102.23496,15.27289],[102.24237,15.27402],[102.24476,15.2741],[102.24449,15.27465],[102.24483,15.27497],[102.24482,15.27609],[102.24429,15.27639],[102.24383,15.27913],[102.24392,15.28053],[102.24316,15.28432],[102.24269,15.28528],[102.24277,15.28591],[102.24164,15.28778],[102.24122,15.29055],[102.24352,15.29564],[102.24407,15.29956],[102.2439,15.30175],[102.24449,15.30317],[102.24514,15.30889],[102.24609,15.31223],[102.2483,15.31857],[102.25037,15.32159],[102.253,15.33109],[102.25333,15.33414],[102.25464,15.33752],[102.25508,15.33997],[102.25493,15.34399],[102.25549,15.34852],[102.25728,15.34933],[102.26266,15.35331],[102.26586,15.35511],[102.27477,15.35869],[102.27912,15.36102],[102.28202,15.36318],[102.28503,15.36607],[102.28827,15.36839],[102.29092,15.37109],[102.29364,15.37217],[102.31176,15.38413],[102.31168,15.37442],[102.31118,15.3652],[102.31136,15.35734],[102.31188,15.3515],[102.31065,15.34363],[102.30074,15.32809],[102.29988,15.32515],[102.29875,15.31649],[102.29779,15.31606],[102.29369,15.3172],[102.29451,15.31328],[102.29483,15.30565],[102.29451,15.30461],[102.29407,15.30394],[102.28816,15.29982],[102.28604,15.29759],[102.28406,15.29454],[102.28197,15.28841],[102.28026,15.28063],[102.27999,15.27743],[102.27953,15.27651],[102.2797,15.26747],[102.28072,15.2612],[102.28272,15.25454],[102.28417,15.25093],[102.28645,15.24741],[102.2877,15.2444]]]}},{"type":"Feature","properties":{"tcode":"301010","name":"จันอัด","amphoe":"โนนสูง","acode":"3010","area_km2":34.08,"lat":15.15629,"lon":102.15786,"station_code":null,"s_class":null,"bldg":4057,"basin":"LCK"},"geometry":{"type":"Polygon","coordinates":[[[102.19116,15.16788],[102.1882,15.1597],[102.18227,15.13995],[102.18097,15.14057],[102.17738,15.13897],[102.17001,15.13775],[102.16862,15.13788],[102.1662,15.1371],[102.16452,15.13611],[102.16182,15.13617],[102.15915,15.13556],[102.1581,15.13625],[102.15765,15.13622],[102.15586,15.13386],[102.15571,15.13285],[102.15621,15.13187],[102.15612,15.13139],[102.15426,15.13061],[102.15218,15.12818],[102.15122,15.12755],[102.15083,15.12651],[102.15004,15.12578],[102.14748,15.1253],[102.1459,15.12583],[102.14607,15.1268],[102.14579,15.12718],[102.14432,15.12698],[102.14353,15.12722],[102.14307,15.12658],[102.14197,15.12642],[102.1416,15.12584],[102.14064,15.12581],[102.14036,15.12476],[102.13958,15.12486],[102.13682,15.12397],[102.13546,15.12404],[102.13481,15.1249],[102.13518,15.1254],[102.13496,15.12589],[102.13451,15.12573],[102.13393,15.12634],[102.13328,15.12628],[102.13264,15.12701],[102.13286,15.1282],[102.13242,15.12871],[102.13182,15.13107],[102.13047,15.1322],[102.13032,15.13307],[102.12815,15.13388],[102.12606,15.13298],[102.1259,15.13146],[102.12446,15.13151],[102.12419,15.1319],[102.12435,15.13419],[102.12078,15.13716],[102.12064,15.13778],[102.12099,15.13891],[102.12056,15.14059],[102.121,15.14088],[102.12125,15.14189],[102.12306,15.14206],[102.12411,15.14475],[102.12688,15.14912],[102.12817,15.15325],[102.12857,15.15634],[102.12999,15.15943],[102.13196,15.16742],[102.13352,15.16854],[102.13218,15.17011],[102.13246,15.17266],[102.13238,15.17429],[102.13166,15.1763],[102.1323,15.17674],[102.13193,15.17872],[102.13223,15.17949],[102.13374,15.18059],[102.13424,15.18133],[102.1344,15.18213],[102.13396,15.18254],[102.13383,15.18443],[102.13472,15.18456],[102.13524,15.18506],[102.13548,15.18657],[102.13601,15.18655],[102.13654,15.18599],[102.13724,15.18603],[102.13751,15.18646],[102.13716,15.18732],[102.13966,15.18698],[102.13991,15.18603],[102.14031,15.18591],[102.14067,15.18611],[102.14067,15.18706],[102.14129,15.18736],[102.14191,15.1863],[102.14149,15.18568],[102.1423,15.18521],[102.14278,15.18553],[102.14254,15.18636],[102.14325,15.18784],[102.1438,15.18772],[102.1447,15.18659],[102.14633,15.18776],[102.14682,15.18768],[102.1476,15.18691],[102.14913,15.18859],[102.14985,15.18863],[102.15008,15.18838],[102.14988,15.18752],[102.15047,15.18666],[102.15158,15.18638],[102.15217,15.18661],[102.15352,15.18646],[102.15377,15.18574],[102.15494,15.1853],[102.15571,15.18601],[102.15666,15.18482],[102.15847,15.18568],[102.15843,15.18339],[102.15879,15.1831],[102.15913,15.18315],[102.15913,15.18377],[102.16005,15.1845],[102.16014,15.18509],[102.16045,15.18511],[102.16116,15.18413],[102.16044,15.18304],[102.16117,15.18289],[102.16091,15.18229],[102.1611,15.18188],[102.1619,15.18114],[102.16329,15.18181],[102.16355,15.18166],[102.16275,15.18065],[102.16302,15.17967],[102.16473,15.18068],[102.16664,15.18237],[102.16832,15.18242],[102.16864,15.18201],[102.16817,15.18143],[102.16862,15.1808],[102.16926,15.18061],[102.17027,15.18113],[102.17062,15.17963],[102.17626,15.17707],[102.18075,15.17428],[102.18558,15.17063],[102.18862,15.16886],[102.19116,15.16788]]]}},{"type":"Feature","properties":{"tcode":"301011","name":"ขามเฒ่า","amphoe":"โนนสูง","acode":"3010","area_km2":37.33,"lat":15.31016,"lon":102.21668,"station_code":null,"s_class":null,"bldg":4974,"basin":null},"geometry":{"type":"Polygon","coordinates":[[[102.23496,15.27289],[102.23423,15.27419],[102.21905,15.27791],[102.2171,15.27813],[102.216,15.27777],[102.20614,15.27775],[102.19644,15.27894],[102.18609,15.27967],[102.18429,15.28023],[102.18462,15.28049],[102.1855,15.28944],[102.18393,15.2944],[102.18386,15.29605],[102.18953,15.31633],[102.18952,15.31999],[102.19002,15.32085],[102.19187,15.32192],[102.19557,15.32282],[102.20064,15.32332],[102.20923,15.32516],[102.21661,15.32721],[102.22403,15.32972],[102.23107,15.33147],[102.23845,15.3341],[102.24276,15.33692],[102.24776,15.34149],[102.25082,15.34502],[102.25549,15.34852],[102.25493,15.34399],[102.25508,15.33997],[102.25464,15.33752],[102.25333,15.33414],[102.253,15.33109],[102.25037,15.32159],[102.2483,15.31857],[102.24609,15.31223],[102.24514,15.30889],[102.24449,15.30317],[102.2439,15.30175],[102.24407,15.29956],[102.24352,15.29564],[102.24122,15.29055],[102.24164,15.28778],[102.24277,15.28591],[102.24269,15.28528],[102.24316,15.28432],[102.24392,15.28053],[102.24383,15.27913],[102.24429,15.27639],[102.24482,15.27609],[102.24483,15.27497],[102.24449,15.27465],[102.24476,15.2741],[102.24237,15.27402],[102.23496,15.27289]]]}},{"type":"Feature","properties":{"tcode":"301012","name":"ด่านคล้า","amphoe":"โนนสูง","acode":"3010","area_km2":30.14,"lat":15.15373,"lon":102.21157,"station_code":null,"s_class":null,"bldg":7049,"basin":"LCK"},"geometry":{"type":"Polygon","coordinates":[[[102.23631,15.17891],[102.2377,15.17746],[102.2398,15.17626],[102.24004,15.16785],[102.2417,15.16235],[102.23942,15.15896],[102.23876,15.15655],[102.23395,15.14925],[102.22444,15.13711],[102.22121,15.13226],[102.22079,15.1308],[102.21525,15.12585],[102.21074,15.12001],[102.20682,15.11913],[102.20136,15.11915],[102.20125,15.12044],[102.19972,15.12135],[102.19909,15.12234],[102.19845,15.12118],[102.19338,15.12257],[102.18856,15.12516],[102.18551,15.12752],[102.18504,15.12823],[102.18286,15.12894],[102.18168,15.13303],[102.18166,15.13429],[102.18235,15.1348],[102.18212,15.13636],[102.18388,15.13779],[102.18274,15.1398],[102.18227,15.13995],[102.1882,15.1597],[102.19116,15.16788],[102.19242,15.16751],[102.19566,15.16815],[102.20124,15.16989],[102.20524,15.17038],[102.2067,15.17179],[102.20661,15.17346],[102.20586,15.1747],[102.20678,15.17543],[102.20635,15.17589],[102.20673,15.17691],[102.20794,15.17781],[102.2072,15.17818],[102.20728,15.17876],[102.2082,15.17913],[102.20949,15.18052],[102.21115,15.1802],[102.2116,15.18131],[102.21118,15.18274],[102.2128,15.18234],[102.21255,15.18382],[102.2131,15.18422],[102.21389,15.18373],[102.21533,15.18376],[102.21578,15.1848],[102.21725,15.18572],[102.21727,15.18656],[102.21959,15.18811],[102.22135,15.18792],[102.22268,15.18651],[102.22269,15.18586],[102.22169,15.18509],[102.22225,15.18393],[102.22298,15.18394],[102.22377,15.18457],[102.22432,15.18519],[102.22455,15.18609],[102.22633,15.18529],[102.22636,15.18463],[102.22544,15.18402],[102.22474,15.18299],[102.22526,15.18184],[102.22799,15.18278],[102.22917,15.18408],[102.2296,15.1833],[102.22929,15.18238],[102.22968,15.18188],[102.23084,15.18197],[102.23175,15.18146],[102.2316,15.18062],[102.23232,15.17962],[102.23269,15.17788],[102.23478,15.17791],[102.23631,15.17891]]]}},{"type":"Feature","properties":{"tcode":"301013","name":"ลำคอหงษ์","amphoe":"โนนสูง","acode":"3010","area_km2":49.38,"lat":15.2456,"lon":102.21172,"station_code":null,"s_class":null,"bldg":4933,"basin":"LCK"},"geometry":{"type":"Polygon","coordinates":[[[102.18429,15.28023],[102.18609,15.27967],[102.19644,15.27894],[102.20614,15.27775],[102.216,15.27777],[102.2171,15.27813],[102.21905,15.27791],[102.23423,15.27419],[102.235,15.27282],[102.2356,15.2726],[102.23578,15.27166],[102.23542,15.2712],[102.23531,15.26896],[102.23597,15.2685],[102.23573,15.26795],[102.23637,15.26757],[102.23613,15.26686],[102.23636,15.26584],[102.23581,15.26445],[102.23607,15.26345],[102.23554,15.26316],[102.23591,15.26249],[102.23575,15.26163],[102.23614,15.26128],[102.23593,15.25981],[102.23646,15.25965],[102.23648,15.25879],[102.23767,15.25812],[102.23834,15.25513],[102.24005,15.25461],[102.24114,15.25214],[102.24156,15.25182],[102.24288,15.25197],[102.24425,15.25167],[102.24444,15.25039],[102.24656,15.24889],[102.2471,15.24886],[102.24746,15.24942],[102.24866,15.24917],[102.24899,15.24769],[102.24968,15.2473],[102.24934,15.24616],[102.24981,15.24551],[102.2511,15.24562],[102.25175,15.24488],[102.25234,15.24595],[102.25278,15.24591],[102.25338,15.24497],[102.25929,15.24037],[102.25979,15.23756],[102.25969,15.23658],[102.2541,15.22241],[102.25267,15.21619],[102.25246,15.21288],[102.25095,15.2124],[102.24952,15.21086],[102.24858,15.21316],[102.24789,15.21398],[102.24787,15.21478],[102.24693,15.21586],[102.24698,15.21673],[102.24579,15.21714],[102.24514,15.21711],[102.24378,15.21591],[102.24315,15.21606],[102.24309,15.21721],[102.2427,15.21755],[102.24152,15.21742],[102.24039,15.21795],[102.23953,15.2174],[102.23798,15.21762],[102.23498,15.216],[102.23186,15.21646],[102.22604,15.21946],[102.21076,15.22591],[102.2008,15.2307],[102.19745,15.23171],[102.19618,15.23162],[102.19372,15.23225],[102.19093,15.23384],[102.18029,15.23822],[102.1747,15.24137],[102.17437,15.24392],[102.17333,15.24635],[102.16851,15.24882],[102.16804,15.24991],[102.16672,15.2512],[102.16501,15.25364],[102.15898,15.26575],[102.1597,15.27572],[102.15885,15.27938],[102.1644,15.27855],[102.16887,15.27861],[102.17448,15.27891],[102.17778,15.28013],[102.17936,15.28036],[102.17948,15.27966],[102.1804,15.27958],[102.18377,15.27988],[102.18429,15.28023]]]}},{"type":"Feature","properties":{"tcode":"301014","name":"เมืองปราสาท","amphoe":"โนนสูง","acode":"3010","area_km2":53.31,"lat":15.2044,"lon":102.19379,"station_code":null,"s_class":null,"bldg":5182,"basin":"LCK"},"geometry":{"type":"Polygon","coordinates":[[[102.24472,15.21665],[102.25324,15.2009],[102.24389,15.19735],[102.23909,15.19404],[102.23872,15.19084],[102.23868,15.18203],[102.23829,15.18104],[102.23715,15.17996],[102.23704,15.1792],[102.23573,15.17877],[102.23478,15.17791],[102.23274,15.17785],[102.23232,15.17962],[102.2316,15.18062],[102.23175,15.18146],[102.23084,15.18197],[102.23009,15.18173],[102.22957,15.18199],[102.22927,15.18247],[102.2296,15.1833],[102.22933,15.18398],[102.22896,15.18403],[102.22856,15.18323],[102.22778,15.18267],[102.22526,15.18184],[102.22474,15.18299],[102.22544,15.18402],[102.22636,15.18463],[102.22633,15.18529],[102.22455,15.18609],[102.22432,15.18519],[102.22377,15.18457],[102.22298,15.18394],[102.22235,15.18389],[102.22169,15.18509],[102.22269,15.18586],[102.22268,15.18651],[102.22135,15.18792],[102.21946,15.18808],[102.21727,15.18656],[102.21725,15.18572],[102.21578,15.1848],[102.21533,15.18376],[102.21389,15.18373],[102.2131,15.18422],[102.21255,15.18382],[102.2128,15.18234],[102.21118,15.18274],[102.2116,15.18131],[102.21115,15.1802],[102.20949,15.18052],[102.2082,15.17913],[102.20728,15.17876],[102.2072,15.17818],[102.20794,15.17781],[102.20673,15.17691],[102.20635,15.17589],[102.20678,15.17543],[102.20586,15.1747],[102.20661,15.17346],[102.2067,15.17179],[102.20524,15.17038],[102.20124,15.16989],[102.19566,15.16815],[102.19183,15.16757],[102.18862,15.16886],[102.18558,15.17063],[102.18075,15.17428],[102.17626,15.17707],[102.17062,15.17963],[102.17027,15.18113],[102.16926,15.18061],[102.16862,15.1808],[102.16817,15.18143],[102.16864,15.18201],[102.16832,15.18242],[102.16664,15.18237],[102.16473,15.18068],[102.16302,15.17967],[102.16275,15.18065],[102.16355,15.18166],[102.16329,15.18181],[102.1619,15.18114],[102.1611,15.18188],[102.16091,15.18229],[102.16117,15.18289],[102.16044,15.18304],[102.16116,15.18413],[102.16034,15.18515],[102.16005,15.1845],[102.15909,15.1837],[102.15913,15.18315],[102.15879,15.1831],[102.15843,15.18339],[102.15847,15.18568],[102.15666,15.18482],[102.15571,15.18601],[102.15494,15.1853],[102.15377,15.18574],[102.15352,15.18646],[102.15217,15.18661],[102.15158,15.18638],[102.15047,15.18666],[102.14988,15.18752],[102.15005,15.18849],[102.1495,15.18869],[102.1476,15.18691],[102.14682,15.18768],[102.14633,15.18776],[102.1447,15.18659],[102.1438,15.18772],[102.14325,15.18784],[102.14273,15.18718],[102.14253,15.18621],[102.1428,15.18563],[102.14241,15.18522],[102.14154,15.18559],[102.14191,15.1863],[102.14119,15.1874],[102.14067,15.18706],[102.14067,15.18611],[102.14013,15.18591],[102.13966,15.18698],[102.13745,15.18742],[102.13711,15.1872],[102.13751,15.18633],[102.1367,15.18594],[102.1356,15.18661],[102.1345,15.1897],[102.13528,15.1904],[102.13646,15.19067],[102.13682,15.19113],[102.13604,15.19365],[102.13514,15.19505],[102.13519,15.19807],[102.13618,15.2043],[102.13693,15.20619],[102.14171,15.21032],[102.15438,15.21085],[102.16405,15.213],[102.16987,15.21358],[102.17265,15.21432],[102.17517,15.21614],[102.17701,15.21793],[102.17815,15.22147],[102.17737,15.22532],[102.17596,15.22776],[102.17497,15.23549],[102.1747,15.24137],[102.18029,15.23822],[102.19093,15.23384],[102.19372,15.23225],[102.19618,15.23162],[102.19745,15.23171],[102.2008,15.2307],[102.21076,15.22591],[102.22604,15.21946],[102.23186,15.21646],[102.23498,15.216],[102.23798,15.21762],[102.23953,15.2174],[102.24039,15.21795],[102.24152,15.21742],[102.24288,15.21743],[102.24329,15.21594],[102.24408,15.21597],[102.24472,15.21665]]]}},{"type":"Feature","properties":{"tcode":"301015","name":"ดอนหวาย","amphoe":"โนนสูง","acode":"3010","area_km2":13.08,"lat":15.11402,"lon":102.27764,"station_code":null,"s_class":null,"bldg":3788,"basin":"MUN"},"geometry":{"type":"Polygon","coordinates":[[[102.28738,15.13238],[102.28974,15.12605],[102.29041,15.12512],[102.29125,15.12454],[102.29278,15.12448],[102.2961,15.12367],[102.29772,15.1193],[102.29894,15.11709],[102.29318,15.1081],[102.28158,15.09842],[102.27978,15.09744],[102.27822,15.09718],[102.2585,15.09813],[102.25633,15.09754],[102.25131,15.09465],[102.25249,15.10087],[102.25378,15.1035],[102.25497,15.105],[102.25505,15.10655],[102.25692,15.1129],[102.26213,15.1176],[102.26892,15.12886],[102.27113,15.12687],[102.27331,15.12621],[102.2735,15.12729],[102.27388,15.12756],[102.27598,15.12778],[102.27234,15.13323],[102.27403,15.13383],[102.27541,15.1339],[102.27553,15.13439],[102.27658,15.13467],[102.27763,15.13437],[102.27833,15.13348],[102.2791,15.13391],[102.28035,15.13363],[102.28351,15.13385],[102.28449,15.13321],[102.28595,15.1333],[102.28738,15.13238]]]}},{"type":"Feature","properties":{"tcode":"301016","name":"ลำมูล","amphoe":"โนนสูง","acode":"3010","area_km2":28.33,"lat":15.06203,"lon":102.30126,"station_code":null,"s_class":null,"bldg":2720,"basin":"MUN"},"geometry":{"type":"Polygon","coordinates":[[[102.34462,15.09195],[102.34448,15.08679],[102.345,15.08545],[102.34534,15.08551],[102.34562,15.08651],[102.34709,15.08686],[102.34707,15.0864],[102.34595,15.085],[102.3478,15.08399],[102.34776,15.08358],[102.34663,15.08302],[102.34657,15.08246],[102.34814,15.08032],[102.34811,15.07965],[102.34751,15.07978],[102.34685,15.08065],[102.34646,15.08063],[102.34605,15.07989],[102.34614,15.07822],[102.34535,15.07786],[102.34436,15.07838],[102.34362,15.07942],[102.34298,15.07947],[102.34273,15.07918],[102.34271,15.0777],[102.34162,15.07745],[102.34119,15.07782],[102.34147,15.07876],[102.34129,15.07927],[102.34041,15.08013],[102.33977,15.08014],[102.33924,15.07945],[102.3384,15.07907],[102.33865,15.07855],[102.34059,15.078],[102.33921,15.07676],[102.33934,15.07581],[102.33886,15.07552],[102.33696,15.07648],[102.33629,15.07613],[102.33636,15.07568],[102.33756,15.07466],[102.33746,15.07408],[102.33498,15.07449],[102.33487,15.07406],[102.33543,15.07331],[102.33479,15.07286],[102.33285,15.07341],[102.33236,15.07468],[102.3317,15.07485],[102.33044,15.07352],[102.32918,15.07285],[102.329,15.07236],[102.32936,15.07143],[102.32898,15.07099],[102.3275,15.07182],[102.32715,15.07326],[102.32626,15.07274],[102.32457,15.07238],[102.32439,15.07195],[102.32469,15.07149],[102.32742,15.06996],[102.32725,15.06887],[102.32656,15.06877],[102.32553,15.06957],[102.32333,15.06821],[102.32084,15.06831],[102.31993,15.06788],[102.31977,15.06718],[102.32032,15.06618],[102.31957,15.0655],[102.31956,15.0646],[102.32013,15.06414],[102.32165,15.06399],[102.32179,15.06345],[102.32051,15.06259],[102.32007,15.06135],[102.31765,15.05995],[102.31563,15.06036],[102.31487,15.05995],[102.315,15.05901],[102.31647,15.05873],[102.3171,15.05828],[102.31696,15.0574],[102.31572,15.05714],[102.31443,15.05632],[102.3137,15.05645],[102.31279,15.05599],[102.31135,15.05637],[102.31066,15.05624],[102.31038,15.05546],[102.31106,15.05434],[102.31075,15.0537],[102.31002,15.05379],[102.30877,15.05464],[102.30714,15.05344],[102.30618,15.05345],[102.30517,15.05436],[102.30469,15.05421],[102.30459,15.05377],[102.30518,15.05268],[102.30654,15.05171],[102.3065,15.05107],[102.30583,15.05056],[102.30473,15.05121],[102.3043,15.05105],[102.30475,15.04967],[102.3047,15.04867],[102.30238,15.04924],[102.30142,15.04902],[102.30276,15.04642],[102.30247,15.04569],[102.3018,15.04558],[102.30074,15.04612],[102.29958,15.04531],[102.29739,15.04525],[102.29743,15.04475],[102.29853,15.04409],[102.29888,15.0433],[102.29748,15.04254],[102.29692,15.0413],[102.29631,15.04134],[102.29578,15.04202],[102.2962,15.04357],[102.29543,15.0447],[102.295,15.04465],[102.29376,15.04338],[102.29271,15.04307],[102.29147,15.0447],[102.29047,15.04481],[102.29039,15.04407],[102.29112,15.04317],[102.29112,15.04274],[102.28839,15.04028],[102.28832,15.03918],[102.28601,15.03913],[102.28456,15.03884],[102.28395,15.03839],[102.28395,15.03772],[102.28461,15.03721],[102.28459,15.03628],[102.28552,15.03531],[102.28514,15.03497],[102.28386,15.03506],[102.28317,15.03462],[102.28316,15.03387],[102.28381,15.03289],[102.28363,15.03236],[102.28193,15.0325],[102.28103,15.0318],[102.27998,15.03192],[102.27937,15.03143],[102.27935,15.03081],[102.27891,15.03038],[102.27701,15.02931],[102.27394,15.03019],[102.27401,15.03159],[102.27339,15.03204],[102.27379,15.03262],[102.27254,15.03221],[102.27239,15.03242],[102.27275,15.03282],[102.27211,15.03292],[102.27159,15.03253],[102.27138,15.03278],[102.27158,15.03351],[102.27077,15.03335],[102.27119,15.03434],[102.2703,15.03407],[102.27046,15.03455],[102.26997,15.03482],[102.27101,15.03535],[102.2709,15.0356],[102.27045,15.03534],[102.27025,15.03555],[102.27099,15.03635],[102.26952,15.03585],[102.26901,15.03533],[102.26867,15.03547],[102.26864,15.03595],[102.26967,15.0369],[102.26963,15.03737],[102.26781,15.03982],[102.2672,15.04022],[102.2669,15.04132],[102.26784,15.05214],[102.27504,15.0588],[102.28609,15.06362],[102.28705,15.06457],[102.28601,15.06706],[102.28378,15.06846],[102.28138,15.07166],[102.28036,15.07357],[102.2802,15.07464],[102.28071,15.07632],[102.282,15.07819],[102.28724,15.08421],[102.29421,15.08678],[102.29936,15.08803],[102.30304,15.08939],[102.30977,15.09054],[102.31261,15.09073],[102.32318,15.09319],[102.33645,15.09415],[102.33845,15.09462],[102.34238,15.09477],[102.34375,15.09448],[102.34462,15.09195]]]}}]}